[
    {
        "code": "371082001",
        "name": "宁津街道",
        "areaCode": "371082",
        "cityCode": "3710",
        "provinceCode": "37"
    },
    {
        "code": "371082002",
        "name": "港湾街道",
        "areaCode": "371082",
        "cityCode": "3710",
        "provinceCode": "37"
    },
    {
        "code": "371082003",
        "name": "桃园街道",
        "areaCode": "371082",
        "cityCode": "3710",
        "provinceCode": "37"
    },
    {
        "code": "371082004",
        "name": "王连街道",
        "areaCode": "371082",
        "cityCode": "3710",
        "provinceCode": "37"
    },
    {
        "code": "371082005",
        "name": "东山街道",
        "areaCode": "371082",
        "cityCode": "3710",
        "provinceCode": "37"
    },
    {
        "code": "371082006",
        "name": "斥山街道",
        "areaCode": "371082",
        "cityCode": "3710",
        "provinceCode": "37"
    },
    {
        "code": "371082007",
        "name": "崖头街道",
        "areaCode": "371082",
        "cityCode": "3710",
        "provinceCode": "37"
    },
    {
        "code": "371082008",
        "name": "城西街道",
        "areaCode": "371082",
        "cityCode": "3710",
        "provinceCode": "37"
    },
    {
        "code": "371082009",
        "name": "寻山街道",
        "areaCode": "371082",
        "cityCode": "3710",
        "provinceCode": "37"
    },
    {
        "code": "371082010",
        "name": "崂山街道",
        "areaCode": "371082",
        "cityCode": "3710",
        "provinceCode": "37"
    },
    {
        "code": "371082101",
        "name": "俚岛镇",
        "areaCode": "371082",
        "cityCode": "3710",
        "provinceCode": "37"
    },
    {
        "code": "371082102",
        "name": "成山镇",
        "areaCode": "371082",
        "cityCode": "3710",
        "provinceCode": "37"
    },
    {
        "code": "371082103",
        "name": "埠柳镇",
        "areaCode": "371082",
        "cityCode": "3710",
        "provinceCode": "37"
    },
    {
        "code": "371082104",
        "name": "港西镇",
        "areaCode": "371082",
        "cityCode": "3710",
        "provinceCode": "37"
    },
    {
        "code": "371082105",
        "name": "夏庄镇",
        "areaCode": "371082",
        "cityCode": "3710",
        "provinceCode": "37"
    },
    {
        "code": "371082106",
        "name": "崖西镇",
        "areaCode": "371082",
        "cityCode": "3710",
        "provinceCode": "37"
    },
    {
        "code": "371082107",
        "name": "荫子镇",
        "areaCode": "371082",
        "cityCode": "3710",
        "provinceCode": "37"
    },
    {
        "code": "371082108",
        "name": "滕家镇",
        "areaCode": "371082",
        "cityCode": "3710",
        "provinceCode": "37"
    },
    {
        "code": "371082109",
        "name": "大疃镇",
        "areaCode": "371082",
        "cityCode": "3710",
        "provinceCode": "37"
    },
    {
        "code": "371082110",
        "name": "上庄镇",
        "areaCode": "371082",
        "cityCode": "3710",
        "provinceCode": "37"
    },
    {
        "code": "371082111",
        "name": "虎山镇",
        "areaCode": "371082",
        "cityCode": "3710",
        "provinceCode": "37"
    },
    {
        "code": "371082112",
        "name": "人和镇",
        "areaCode": "371082",
        "cityCode": "3710",
        "provinceCode": "37"
    }
]