[{"code":"371082001008","name":"富甲山庄居委会","streetCode":"371082001","areaCode":"371082","cityCode":"3710","provinceCode":"37"},{"code":"371082001203","name":"渠隔村委会","streetCode":"371082001","areaCode":"371082","cityCode":"3710","provinceCode":"37"},{"code":"371082001205","name":"北场村委会","streetCode":"371082001","areaCode":"371082","cityCode":"3710","provinceCode":"37"},{"code":"371082001207","name":"留村村委会","streetCode":"371082001","areaCode":"371082","cityCode":"3710","provinceCode":"37"},{"code":"371082001208","name":"口子村委会","streetCode":"371082001","areaCode":"371082","cityCode":"3710","provinceCode":"37"},{"code":"371082001209","name":"东墩村委会","streetCode":"371082001","areaCode":"371082","cityCode":"3710","provinceCode":"37"},{"code":"371082001210","name":"南泊村委会","streetCode":"371082001","areaCode":"371082","cityCode":"3710","provinceCode":"37"},{"code":"371082001211","name":"南港头村委会","streetCode":"371082001","areaCode":"371082","cityCode":"3710","provinceCode":"37"},{"code":"371082001212","name":"季家村委会","streetCode":"371082001","areaCode":"371082","cityCode":"3710","provinceCode":"37"},{"code":"371082001213","name":"所前王家村委会","streetCode":"371082001","areaCode":"371082","cityCode":"3710","provinceCode":"37"},{"code":"371082001214","name":"大岔河村委会","streetCode":"371082001","areaCode":"371082","cityCode":"3710","provinceCode":"37"},{"code":"371082001215","name":"东苏家村委会","streetCode":"371082001","areaCode":"371082","cityCode":"3710","provinceCode":"37"},{"code":"371082001216","name":"鞠家村委会","streetCode":"371082001","areaCode":"371082","cityCode":"3710","provinceCode":"37"},{"code":"371082001217","name":"周庄村委会","streetCode":"371082001","areaCode":"371082","cityCode":"3710","provinceCode":"37"},{"code":"371082001218","name":"于家村委会","streetCode":"371082001","areaCode":"371082","cityCode":"3710","provinceCode":"37"},{"code":"371082001219","name":"小河东村委会","streetCode":"371082001","areaCode":"371082","cityCode":"3710","provinceCode":"37"},{"code":"371082001220","name":"所东张家村委会","streetCode":"371082001","areaCode":"371082","cityCode":"3710","provinceCode":"37"},{"code":"371082001221","name":"所东王家村委会","streetCode":"371082001","areaCode":"371082","cityCode":"3710","provinceCode":"37"},{"code":"371082001222","name":"东钱家村委会","streetCode":"371082001","areaCode":"371082","cityCode":"3710","provinceCode":"37"},{"code":"371082001223","name":"西钱家村委会","streetCode":"371082001","areaCode":"371082","cityCode":"3710","provinceCode":"37"},{"code":"371082001224","name":"尹家庄村委会","streetCode":"371082001","areaCode":"371082","cityCode":"3710","provinceCode":"37"},{"code":"371082001225","name":"止马滩村委会","streetCode":"371082001","areaCode":"371082","cityCode":"3710","provinceCode":"37"},{"code":"371082001226","name":"马栏耩村委会","streetCode":"371082001","areaCode":"371082","cityCode":"3710","provinceCode":"37"},{"code":"371082001227","name":"洼里村委会","streetCode":"371082001","areaCode":"371082","cityCode":"3710","provinceCode":"37"},{"code":"371082001228","name":"龙云村委会","streetCode":"371082001","areaCode":"371082","cityCode":"3710","provinceCode":"37"},{"code":"371082001229","name":"龙泉村委会","streetCode":"371082001","areaCode":"371082","cityCode":"3710","provinceCode":"37"},{"code":"371082001230","name":"马家寨村委会","streetCode":"371082001","areaCode":"371082","cityCode":"3710","provinceCode":"37"},{"code":"371082001231","name":"后店子村委会","streetCode":"371082001","areaCode":"371082","cityCode":"3710","provinceCode":"37"},{"code":"371082001232","name":"所后杨家村委会","streetCode":"371082001","areaCode":"371082","cityCode":"3710","provinceCode":"37"},{"code":"371082001233","name":"所后马家村委会","streetCode":"371082001","areaCode":"371082","cityCode":"3710","provinceCode":"37"},{"code":"371082001234","name":"所后王家村委会","streetCode":"371082001","areaCode":"371082","cityCode":"3710","provinceCode":"37"},{"code":"371082001235","name":"所后卢家村委会","streetCode":"371082001","areaCode":"371082","cityCode":"3710","provinceCode":"37"},{"code":"371082001236","name":"涝滩子村委会","streetCode":"371082001","areaCode":"371082","cityCode":"3710","provinceCode":"37"},{"code":"371082001237","name":"岛西庄村委会","streetCode":"371082001","areaCode":"371082","cityCode":"3710","provinceCode":"37"},{"code":"371082001238","name":"后海崖村委会","streetCode":"371082001","areaCode":"371082","cityCode":"3710","provinceCode":"37"},{"code":"371082001239","name":"金庄村委会","streetCode":"371082001","areaCode":"371082","cityCode":"3710","provinceCode":"37"},{"code":"371082001240","name":"岛东耩村委会","streetCode":"371082001","areaCode":"371082","cityCode":"3710","provinceCode":"37"},{"code":"371082001241","name":"刘庄村委会","streetCode":"371082001","areaCode":"371082","cityCode":"3710","provinceCode":"37"},{"code":"371082001243","name":"南洼村委会","streetCode":"371082001","areaCode":"371082","cityCode":"3710","provinceCode":"37"},{"code":"371082001244","name":"吕家庄村委会","streetCode":"371082001","areaCode":"371082","cityCode":"3710","provinceCode":"37"},{"code":"371082001245","name":"西道村委会","streetCode":"371082001","areaCode":"371082","cityCode":"3710","provinceCode":"37"},{"code":"371082001246","name":"宁津所村委会","streetCode":"371082001","areaCode":"371082","cityCode":"3710","provinceCode":"37"},{"code":"371082001247","name":"卢家庄村委会","streetCode":"371082001","areaCode":"371082","cityCode":"3710","provinceCode":"37"},{"code":"371082001248","name":"桥上村委会","streetCode":"371082001","areaCode":"371082","cityCode":"3710","provinceCode":"37"},{"code":"371082001249","name":"东楮岛村委会","streetCode":"371082001","areaCode":"371082","cityCode":"3710","provinceCode":"37"},{"code":"371082001250","name":"林家流村委会","streetCode":"371082001","areaCode":"371082","cityCode":"3710","provinceCode":"37"},{"code":"371082002003","name":"兴隆社区居委会","streetCode":"371082002","areaCode":"371082","cityCode":"3710","provinceCode":"37"},{"code":"371082002005","name":"渔港社区居委会","streetCode":"371082002","areaCode":"371082","cityCode":"3710","provinceCode":"37"},{"code":"371082002006","name":"映红山社区居委会","streetCode":"371082002","areaCode":"371082","cityCode":"3710","provinceCode":"37"},{"code":"371082002007","name":"陀山社区居委会","streetCode":"371082002","areaCode":"371082","cityCode":"3710","provinceCode":"37"},{"code":"371082002011","name":"大鱼岛社区居委会","streetCode":"371082002","areaCode":"371082","cityCode":"3710","provinceCode":"37"},{"code":"371082002012","name":"张家村社区居委会","streetCode":"371082002","areaCode":"371082","cityCode":"3710","provinceCode":"37"},{"code":"371082002027","name":"渔人码头居委会","streetCode":"371082002","areaCode":"371082","cityCode":"3710","provinceCode":"37"},{"code":"371082002028","name":"车脚河社区居委会","streetCode":"371082002","areaCode":"371082","cityCode":"3710","provinceCode":"37"},{"code":"371082002029","name":"环山社区居委会","streetCode":"371082002","areaCode":"371082","cityCode":"3710","provinceCode":"37"},{"code":"371082002030","name":"山海湾社区居委会","streetCode":"371082002","areaCode":"371082","cityCode":"3710","provinceCode":"37"},{"code":"371082002201","name":"炮台东村委会","streetCode":"371082002","areaCode":"371082","cityCode":"3710","provinceCode":"37"},{"code":"371082002202","name":"牧云庵村委会","streetCode":"371082002","areaCode":"371082","cityCode":"3710","provinceCode":"37"},{"code":"371082002203","name":"西车脚河村委会","streetCode":"371082002","areaCode":"371082","cityCode":"3710","provinceCode":"37"},{"code":"371082003001","name":"朝阳社区居委会","streetCode":"371082003","areaCode":"371082","cityCode":"3710","provinceCode":"37"},{"code":"371082003201","name":"桃园村委会","streetCode":"371082003","areaCode":"371082","cityCode":"3710","provinceCode":"37"},{"code":"371082003202","name":"上谭家村委会","streetCode":"371082003","areaCode":"371082","cityCode":"3710","provinceCode":"37"},{"code":"371082003204","name":"山前村委会","streetCode":"371082003","areaCode":"371082","cityCode":"3710","provinceCode":"37"},{"code":"371082003205","name":"青木寨村委会","streetCode":"371082003","areaCode":"371082","cityCode":"3710","provinceCode":"37"},{"code":"371082003206","name":"邵家村委会","streetCode":"371082003","areaCode":"371082","cityCode":"3710","provinceCode":"37"},{"code":"371082003207","name":"河东村委会","streetCode":"371082003","areaCode":"371082","cityCode":"3710","provinceCode":"37"},{"code":"371082003208","name":"河东原家村委会","streetCode":"371082003","areaCode":"371082","cityCode":"3710","provinceCode":"37"},{"code":"371082003209","name":"于家河村委会","streetCode":"371082003","areaCode":"371082","cityCode":"3710","provinceCode":"37"},{"code":"371082003210","name":"朋上村委会","streetCode":"371082003","areaCode":"371082","cityCode":"3710","provinceCode":"37"},{"code":"371082003211","name":"西南海村委会","streetCode":"371082003","areaCode":"371082","cityCode":"3710","provinceCode":"37"},{"code":"371082003212","name":"东南海村委会","streetCode":"371082003","areaCode":"371082","cityCode":"3710","provinceCode":"37"},{"code":"371082003213","name":"苑家村委会","streetCode":"371082003","areaCode":"371082","cityCode":"3710","provinceCode":"37"},{"code":"371082003214","name":"南夏家村委会","streetCode":"371082003","areaCode":"371082","cityCode":"3710","provinceCode":"37"},{"code":"371082003215","name":"耩前殷家村委会","streetCode":"371082003","areaCode":"371082","cityCode":"3710","provinceCode":"37"},{"code":"371082003216","name":"下谭家村委会","streetCode":"371082003","areaCode":"371082","cityCode":"3710","provinceCode":"37"},{"code":"371082004201","name":"隋家庄村委会","streetCode":"371082004","areaCode":"371082","cityCode":"3710","provinceCode":"37"},{"code":"371082004202","name":"南桥头村委会","streetCode":"371082004","areaCode":"371082","cityCode":"3710","provinceCode":"37"},{"code":"371082004203","name":"沟曲家村委会","streetCode":"371082004","areaCode":"371082","cityCode":"3710","provinceCode":"37"},{"code":"371082004204","name":"北桥头村委会","streetCode":"371082004","areaCode":"371082","cityCode":"3710","provinceCode":"37"},{"code":"371082004205","name":"乔子头村委会","streetCode":"371082004","areaCode":"371082","cityCode":"3710","provinceCode":"37"},{"code":"371082004206","name":"阴亮村委会","streetCode":"371082004","areaCode":"371082","cityCode":"3710","provinceCode":"37"},{"code":"371082004207","name":"寨前峨石村委会","streetCode":"371082004","areaCode":"371082","cityCode":"3710","provinceCode":"37"},{"code":"371082004208","name":"寨前于家村委会","streetCode":"371082004","areaCode":"371082","cityCode":"3710","provinceCode":"37"},{"code":"371082004209","name":"寨前方家村委会","streetCode":"371082004","areaCode":"371082","cityCode":"3710","provinceCode":"37"},{"code":"371082004210","name":"寨前王家村委会","streetCode":"371082004","areaCode":"371082","cityCode":"3710","provinceCode":"37"},{"code":"371082004211","name":"寨前赛家村委会","streetCode":"371082004","areaCode":"371082","cityCode":"3710","provinceCode":"37"},{"code":"371082004212","name":"店子村委会","streetCode":"371082004","areaCode":"371082","cityCode":"3710","provinceCode":"37"},{"code":"371082004213","name":"东慕家村委会","streetCode":"371082004","areaCode":"371082","cityCode":"3710","provinceCode":"37"},{"code":"371082004214","name":"东岛刘家村委会","streetCode":"371082004","areaCode":"371082","cityCode":"3710","provinceCode":"37"},{"code":"371082004215","name":"赵家山村委会","streetCode":"371082004","areaCode":"371082","cityCode":"3710","provinceCode":"37"},{"code":"371082004216","name":"西慕家村委会","streetCode":"371082004","areaCode":"371082","cityCode":"3710","provinceCode":"37"},{"code":"371082004217","name":"刘家庄村委会","streetCode":"371082004","areaCode":"371082","cityCode":"3710","provinceCode":"37"},{"code":"371082004219","name":"常家庄村委会","streetCode":"371082004","areaCode":"371082","cityCode":"3710","provinceCode":"37"},{"code":"371082004220","name":"大汛姜家村委会","streetCode":"371082004","areaCode":"371082","cityCode":"3710","provinceCode":"37"},{"code":"371082004221","name":"王家庄村委会","streetCode":"371082004","areaCode":"371082","cityCode":"3710","provinceCode":"37"},{"code":"371082004222","name":"连家庄村委会","streetCode":"371082004","areaCode":"371082","cityCode":"3710","provinceCode":"37"},{"code":"371082004223","name":"客岭村委会","streetCode":"371082004","areaCode":"371082","cityCode":"3710","provinceCode":"37"},{"code":"371082004224","name":"河西乔家村委会","streetCode":"371082004","areaCode":"371082","cityCode":"3710","provinceCode":"37"},{"code":"371082004225","name":"马岭洪家村委会","streetCode":"371082004","areaCode":"371082","cityCode":"3710","provinceCode":"37"},{"code":"371082004226","name":"马岭孙家村委会","streetCode":"371082004","areaCode":"371082","cityCode":"3710","provinceCode":"37"},{"code":"371082004227","name":"上夼村委会","streetCode":"371082004","areaCode":"371082","cityCode":"3710","provinceCode":"37"},{"code":"371082004228","name":"松顶后村委会","streetCode":"371082004","areaCode":"371082","cityCode":"3710","provinceCode":"37"},{"code":"371082004229","name":"南也子口村委会","streetCode":"371082004","areaCode":"371082","cityCode":"3710","provinceCode":"37"},{"code":"371082004230","name":"马岭许家村委会","streetCode":"371082004","areaCode":"371082","cityCode":"3710","provinceCode":"37"},{"code":"371082004231","name":"马岭滑家村委会","streetCode":"371082004","areaCode":"371082","cityCode":"3710","provinceCode":"37"},{"code":"371082004232","name":"马岭董家村委会","streetCode":"371082004","areaCode":"371082","cityCode":"3710","provinceCode":"37"},{"code":"371082005201","name":"东山村委会","streetCode":"371082005","areaCode":"371082","cityCode":"3710","provinceCode":"37"},{"code":"371082005202","name":"南庄村委会","streetCode":"371082005","areaCode":"371082","cityCode":"3710","provinceCode":"37"},{"code":"371082005203","name":"东窑村委会","streetCode":"371082005","areaCode":"371082","cityCode":"3710","provinceCode":"37"},{"code":"371082005204","name":"双榜泊村委会","streetCode":"371082005","areaCode":"371082","cityCode":"3710","provinceCode":"37"},{"code":"371082005205","name":"沟王家村委会","streetCode":"371082005","areaCode":"371082","cityCode":"3710","provinceCode":"37"},{"code":"371082005206","name":"干占村委会","streetCode":"371082005","areaCode":"371082","cityCode":"3710","provinceCode":"37"},{"code":"371082005207","name":"甲子山村委会","streetCode":"371082005","areaCode":"371082","cityCode":"3710","provinceCode":"37"},{"code":"371082005208","name":"柳树集村委会","streetCode":"371082005","areaCode":"371082","cityCode":"3710","provinceCode":"37"},{"code":"371082005209","name":"吉屯村委会","streetCode":"371082005","areaCode":"371082","cityCode":"3710","provinceCode":"37"},{"code":"371082005210","name":"后港头村委会","streetCode":"371082005","areaCode":"371082","cityCode":"3710","provinceCode":"37"},{"code":"371082005211","name":"河北村委会","streetCode":"371082005","areaCode":"371082","cityCode":"3710","provinceCode":"37"},{"code":"371082005212","name":"西夏家村委会","streetCode":"371082005","areaCode":"371082","cityCode":"3710","provinceCode":"37"},{"code":"371082005213","name":"万马邢家村委会","streetCode":"371082005","areaCode":"371082","cityCode":"3710","provinceCode":"37"},{"code":"371082005215","name":"港西崖村委会","streetCode":"371082005","areaCode":"371082","cityCode":"3710","provinceCode":"37"},{"code":"371082005216","name":"楼底下村委会","streetCode":"371082005","areaCode":"371082","cityCode":"3710","provinceCode":"37"},{"code":"371082005217","name":"崮山前村委会","streetCode":"371082005","areaCode":"371082","cityCode":"3710","provinceCode":"37"},{"code":"371082005219","name":"八河孔家村委会","streetCode":"371082005","areaCode":"371082","cityCode":"3710","provinceCode":"37"},{"code":"371082005220","name":"八河王家村委会","streetCode":"371082005","areaCode":"371082","cityCode":"3710","provinceCode":"37"},{"code":"371082005221","name":"八河毕家村委会","streetCode":"371082005","areaCode":"371082","cityCode":"3710","provinceCode":"37"},{"code":"371082005222","name":"青山前村委会","streetCode":"371082005","areaCode":"371082","cityCode":"3710","provinceCode":"37"},{"code":"371082005223","name":"十里夏家村委会","streetCode":"371082005","areaCode":"371082","cityCode":"3710","provinceCode":"37"},{"code":"371082005224","name":"八里王家村委会","streetCode":"371082005","areaCode":"371082","cityCode":"3710","provinceCode":"37"},{"code":"371082005226","name":"龙山后村委会","streetCode":"371082005","areaCode":"371082","cityCode":"3710","provinceCode":"37"},{"code":"371082005227","name":"龙山前村委会","streetCode":"371082005","areaCode":"371082","cityCode":"3710","provinceCode":"37"},{"code":"371082005228","name":"土山村委会","streetCode":"371082005","areaCode":"371082","cityCode":"3710","provinceCode":"37"},{"code":"371082005229","name":"潭村林家村委会","streetCode":"371082005","areaCode":"371082","cityCode":"3710","provinceCode":"37"},{"code":"371082005230","name":"潭村曲家村委会","streetCode":"371082005","areaCode":"371082","cityCode":"3710","provinceCode":"37"},{"code":"371082005231","name":"石头河村委会","streetCode":"371082005","areaCode":"371082","cityCode":"3710","provinceCode":"37"},{"code":"371082006002","name":"东火塘寨社区居委会","streetCode":"371082006","areaCode":"371082","cityCode":"3710","provinceCode":"37"},{"code":"371082006003","name":"西火塘寨社区居委会","streetCode":"371082006","areaCode":"371082","cityCode":"3710","provinceCode":"37"},{"code":"371082006004","name":"合悦社区居委会","streetCode":"371082006","areaCode":"371082","cityCode":"3710","provinceCode":"37"},{"code":"371082006008","name":"凤凰湖社区居委会","streetCode":"371082006","areaCode":"371082","cityCode":"3710","provinceCode":"37"},{"code":"371082006009","name":"悦澜府邸社区居委会","streetCode":"371082006","areaCode":"371082","cityCode":"3710","provinceCode":"37"},{"code":"371082006201","name":"殷家村委会","streetCode":"371082006","areaCode":"371082","cityCode":"3710","provinceCode":"37"},{"code":"371082006202","name":"西苏家村委会","streetCode":"371082006","areaCode":"371082","cityCode":"3710","provinceCode":"37"},{"code":"371082006204","name":"吴家村委会","streetCode":"371082006","areaCode":"371082","cityCode":"3710","provinceCode":"37"},{"code":"371082006205","name":"郭家村委会","streetCode":"371082006","areaCode":"371082","cityCode":"3710","provinceCode":"37"},{"code":"371082006206","name":"沟姜家村委会","streetCode":"371082006","areaCode":"371082","cityCode":"3710","provinceCode":"37"},{"code":"371082006207","name":"沟李家村委会","streetCode":"371082006","areaCode":"371082","cityCode":"3710","provinceCode":"37"},{"code":"371082006209","name":"东泊子村委会","streetCode":"371082006","areaCode":"371082","cityCode":"3710","provinceCode":"37"},{"code":"371082006210","name":"西泊子村委会","streetCode":"371082006","areaCode":"371082","cityCode":"3710","provinceCode":"37"},{"code":"371082006212","name":"石龙山前村委会","streetCode":"371082006","areaCode":"371082","cityCode":"3710","provinceCode":"37"},{"code":"371082006213","name":"岭上唐家村委会","streetCode":"371082006","areaCode":"371082","cityCode":"3710","provinceCode":"37"},{"code":"371082006214","name":"北庙山村委会","streetCode":"371082006","areaCode":"371082","cityCode":"3710","provinceCode":"37"},{"code":"371082006215","name":"大磨张家村委会","streetCode":"371082006","areaCode":"371082","cityCode":"3710","provinceCode":"37"},{"code":"371082006216","name":"立山村委会","streetCode":"371082006","areaCode":"371082","cityCode":"3710","provinceCode":"37"},{"code":"371082006217","name":"夏家泊村委会","streetCode":"371082006","areaCode":"371082","cityCode":"3710","provinceCode":"37"},{"code":"371082006218","name":"初家齐山村委会","streetCode":"371082006","areaCode":"371082","cityCode":"3710","provinceCode":"37"},{"code":"371082006219","name":"周家齐山村委会","streetCode":"371082006","areaCode":"371082","cityCode":"3710","provinceCode":"37"},{"code":"371082006220","name":"高家齐村委会","streetCode":"371082006","areaCode":"371082","cityCode":"3710","provinceCode":"37"},{"code":"371082006221","name":"南庙山村委会","streetCode":"371082006","areaCode":"371082","cityCode":"3710","provinceCode":"37"},{"code":"371082006222","name":"志门村委会","streetCode":"371082006","areaCode":"371082","cityCode":"3710","provinceCode":"37"},{"code":"371082006223","name":"北窑村委会","streetCode":"371082006","areaCode":"371082","cityCode":"3710","provinceCode":"37"},{"code":"371082006224","name":"南窑村委会","streetCode":"371082006","areaCode":"371082","cityCode":"3710","provinceCode":"37"},{"code":"371082006225","name":"李家河村委会","streetCode":"371082006","areaCode":"371082","cityCode":"3710","provinceCode":"37"},{"code":"371082006226","name":"斥山村委会","streetCode":"371082006","areaCode":"371082","cityCode":"3710","provinceCode":"37"},{"code":"371082006227","name":"尹格庄村委会","streetCode":"371082006","areaCode":"371082","cityCode":"3710","provinceCode":"37"},{"code":"371082006228","name":"盛家村委会","streetCode":"371082006","areaCode":"371082","cityCode":"3710","provinceCode":"37"},{"code":"371082006229","name":"范家村委会","streetCode":"371082006","areaCode":"371082","cityCode":"3710","provinceCode":"37"},{"code":"371082007002","name":"三环社区居委会","streetCode":"371082007","areaCode":"371082","cityCode":"3710","provinceCode":"37"},{"code":"371082007003","name":"青山社区居委会","streetCode":"371082007","areaCode":"371082","cityCode":"3710","provinceCode":"37"},{"code":"371082007004","name":"河西社区居委会","streetCode":"371082007","areaCode":"371082","cityCode":"3710","provinceCode":"37"},{"code":"371082007005","name":"河东社区居委会","streetCode":"371082007","areaCode":"371082","cityCode":"3710","provinceCode":"37"},{"code":"371082007006","name":"沽河社区居委会","streetCode":"371082007","areaCode":"371082","cityCode":"3710","provinceCode":"37"},{"code":"371082007008","name":"新庄社区居委会","streetCode":"371082007","areaCode":"371082","cityCode":"3710","provinceCode":"37"},{"code":"371082007009","name":"华侨新村社区居委会","streetCode":"371082007","areaCode":"371082","cityCode":"3710","provinceCode":"37"},{"code":"371082007010","name":"玉龙社区居委会","streetCode":"371082007","areaCode":"371082","cityCode":"3710","provinceCode":"37"},{"code":"371082007012","name":"康平社区居委会","streetCode":"371082007","areaCode":"371082","cityCode":"3710","provinceCode":"37"},{"code":"371082007013","name":"南山社区居委会","streetCode":"371082007","areaCode":"371082","cityCode":"3710","provinceCode":"37"},{"code":"371082007014","name":"府新社区居委会","streetCode":"371082007","areaCode":"371082","cityCode":"3710","provinceCode":"37"},{"code":"371082007015","name":"花园社区居委会","streetCode":"371082007","areaCode":"371082","cityCode":"3710","provinceCode":"37"},{"code":"371082007021","name":"蜊江社区居委会","streetCode":"371082007","areaCode":"371082","cityCode":"3710","provinceCode":"37"},{"code":"371082007025","name":"曙光社区居委会","streetCode":"371082007","areaCode":"371082","cityCode":"3710","provinceCode":"37"},{"code":"371082007027","name":"双泊社区居委会","streetCode":"371082007","areaCode":"371082","cityCode":"3710","provinceCode":"37"},{"code":"371082007028","name":"得润社区居委会","streetCode":"371082007","areaCode":"371082","cityCode":"3710","provinceCode":"37"},{"code":"371082007029","name":"香河社区居委会","streetCode":"371082007","areaCode":"371082","cityCode":"3710","provinceCode":"37"},{"code":"371082007030","name":"北环社区居委会","streetCode":"371082007","areaCode":"371082","cityCode":"3710","provinceCode":"37"},{"code":"371082007031","name":"崖头社区居委会","streetCode":"371082007","areaCode":"371082","cityCode":"3710","provinceCode":"37"},{"code":"371082007032","name":"台上社区居委会","streetCode":"371082007","areaCode":"371082","cityCode":"3710","provinceCode":"37"},{"code":"371082007033","name":"德平社区居委会","streetCode":"371082007","areaCode":"371082","cityCode":"3710","provinceCode":"37"},{"code":"371082007221","name":"前密文村委会","streetCode":"371082007","areaCode":"371082","cityCode":"3710","provinceCode":"37"},{"code":"371082007224","name":"张家村委会","streetCode":"371082007","areaCode":"371082","cityCode":"3710","provinceCode":"37"},{"code":"371082007225","name":"后密文村委会","streetCode":"371082007","areaCode":"371082","cityCode":"3710","provinceCode":"37"},{"code":"371082007226","name":"夼北村委会","streetCode":"371082007","areaCode":"371082","cityCode":"3710","provinceCode":"37"},{"code":"371082008001","name":"西环社区居委会","streetCode":"371082008","areaCode":"371082","cityCode":"3710","provinceCode":"37"},{"code":"371082008200","name":"八甲村委会","streetCode":"371082008","areaCode":"371082","cityCode":"3710","provinceCode":"37"},{"code":"371082008201","name":"河西王家村委会","streetCode":"371082008","areaCode":"371082","cityCode":"3710","provinceCode":"37"},{"code":"371082008202","name":"郭家庄村委会","streetCode":"371082008","areaCode":"371082","cityCode":"3710","provinceCode":"37"},{"code":"371082008203","name":"沽泊姚家村委会","streetCode":"371082008","areaCode":"371082","cityCode":"3710","provinceCode":"37"},{"code":"371082008204","name":"大岳家村委会","streetCode":"371082008","areaCode":"371082","cityCode":"3710","provinceCode":"37"},{"code":"371082008205","name":"河崖村委会","streetCode":"371082008","areaCode":"371082","cityCode":"3710","provinceCode":"37"},{"code":"371082008206","name":"向阳埠村委会","streetCode":"371082008","areaCode":"371082","cityCode":"3710","provinceCode":"37"},{"code":"371082008207","name":"小岳家村委会","streetCode":"371082008","areaCode":"371082","cityCode":"3710","provinceCode":"37"},{"code":"371082008208","name":"沽泊闫家村委会","streetCode":"371082008","areaCode":"371082","cityCode":"3710","provinceCode":"37"},{"code":"371082008209","name":"不落讲村委会","streetCode":"371082008","areaCode":"371082","cityCode":"3710","provinceCode":"37"},{"code":"371082008213","name":"水门口村委会","streetCode":"371082008","areaCode":"371082","cityCode":"3710","provinceCode":"37"},{"code":"371082008214","name":"后龙河村委会","streetCode":"371082008","areaCode":"371082","cityCode":"3710","provinceCode":"37"},{"code":"371082008215","name":"后沟村委会","streetCode":"371082008","areaCode":"371082","cityCode":"3710","provinceCode":"37"},{"code":"371082008216","name":"鸭湾村委会","streetCode":"371082008","areaCode":"371082","cityCode":"3710","provinceCode":"37"},{"code":"371082008217","name":"西庄村委会","streetCode":"371082008","areaCode":"371082","cityCode":"3710","provinceCode":"37"},{"code":"371082008218","name":"徐家村委会","streetCode":"371082008","areaCode":"371082","cityCode":"3710","provinceCode":"37"},{"code":"371082008219","name":"前龙河村委会","streetCode":"371082008","areaCode":"371082","cityCode":"3710","provinceCode":"37"},{"code":"371082008220","name":"河北隋家村委会","streetCode":"371082008","areaCode":"371082","cityCode":"3710","provinceCode":"37"},{"code":"371082008222","name":"福禄山村委会","streetCode":"371082008","areaCode":"371082","cityCode":"3710","provinceCode":"37"},{"code":"371082008227","name":"坦埠庄村委会","streetCode":"371082008","areaCode":"371082","cityCode":"3710","provinceCode":"37"},{"code":"371082008229","name":"棘子埠村委会","streetCode":"371082008","areaCode":"371082","cityCode":"3710","provinceCode":"37"},{"code":"371082008230","name":"山马家村委会","streetCode":"371082008","areaCode":"371082","cityCode":"3710","provinceCode":"37"},{"code":"371082008234","name":"垛山姜家村委会","streetCode":"371082008","areaCode":"371082","cityCode":"3710","provinceCode":"37"},{"code":"371082008235","name":"垛山周家村委会","streetCode":"371082008","areaCode":"371082","cityCode":"3710","provinceCode":"37"},{"code":"371082008236","name":"古格村委会","streetCode":"371082008","areaCode":"371082","cityCode":"3710","provinceCode":"37"},{"code":"371082008237","name":"河西村委会","streetCode":"371082008","areaCode":"371082","cityCode":"3710","provinceCode":"37"},{"code":"371082008238","name":"东岭后村委会","streetCode":"371082008","areaCode":"371082","cityCode":"3710","provinceCode":"37"},{"code":"371082008239","name":"西岭后村委会","streetCode":"371082008","areaCode":"371082","cityCode":"3710","provinceCode":"37"},{"code":"371082008240","name":"兰家村委会","streetCode":"371082008","areaCode":"371082","cityCode":"3710","provinceCode":"37"},{"code":"371082008241","name":"河北新村村委会","streetCode":"371082008","areaCode":"371082","cityCode":"3710","provinceCode":"37"},{"code":"371082008242","name":"垛山村委会","streetCode":"371082008","areaCode":"371082","cityCode":"3710","provinceCode":"37"},{"code":"371082009002","name":"青鱼滩社区居委会","streetCode":"371082009","areaCode":"371082","cityCode":"3710","provinceCode":"37"},{"code":"371082009003","name":"天成社区居委会","streetCode":"371082009","areaCode":"371082","cityCode":"3710","provinceCode":"37"},{"code":"371082009200","name":"城后村委会","streetCode":"371082009","areaCode":"371082","cityCode":"3710","provinceCode":"37"},{"code":"371082009201","name":"蔡家庄村委会","streetCode":"371082009","areaCode":"371082","cityCode":"3710","provinceCode":"37"},{"code":"371082009203","name":"菜园村委会","streetCode":"371082009","areaCode":"371082","cityCode":"3710","provinceCode":"37"},{"code":"371082009205","name":"寻山所村委会","streetCode":"371082009","areaCode":"371082","cityCode":"3710","provinceCode":"37"},{"code":"371082009206","name":"北吴家村委会","streetCode":"371082009","areaCode":"371082","cityCode":"3710","provinceCode":"37"},{"code":"371082009207","name":"牛口石村委会","streetCode":"371082009","areaCode":"371082","cityCode":"3710","provinceCode":"37"},{"code":"371082009208","name":"清河村委会","streetCode":"371082009","areaCode":"371082","cityCode":"3710","provinceCode":"37"},{"code":"371082009209","name":"夼子河村委会","streetCode":"371082009","areaCode":"371082","cityCode":"3710","provinceCode":"37"},{"code":"371082009210","name":"前虎口村委会","streetCode":"371082009","areaCode":"371082","cityCode":"3710","provinceCode":"37"},{"code":"371082009215","name":"石猴子村委会","streetCode":"371082009","areaCode":"371082","cityCode":"3710","provinceCode":"37"},{"code":"371082009216","name":"青安屯村委会","streetCode":"371082009","areaCode":"371082","cityCode":"3710","provinceCode":"37"},{"code":"371082009217","name":"西高家村委会","streetCode":"371082009","areaCode":"371082","cityCode":"3710","provinceCode":"37"},{"code":"371082009218","name":"冷家村委会","streetCode":"371082009","areaCode":"371082","cityCode":"3710","provinceCode":"37"},{"code":"371082009219","name":"赵家村委会","streetCode":"371082009","areaCode":"371082","cityCode":"3710","provinceCode":"37"},{"code":"371082009220","name":"黄家楼村委会","streetCode":"371082009","areaCode":"371082","cityCode":"3710","provinceCode":"37"},{"code":"371082009221","name":"大黄家村委会","streetCode":"371082009","areaCode":"371082","cityCode":"3710","provinceCode":"37"},{"code":"371082009222","name":"小黄家村委会","streetCode":"371082009","areaCode":"371082","cityCode":"3710","provinceCode":"37"},{"code":"371082009223","name":"竹村村委会","streetCode":"371082009","areaCode":"371082","cityCode":"3710","provinceCode":"37"},{"code":"371082009224","name":"西北山村委会","streetCode":"371082009","areaCode":"371082","cityCode":"3710","provinceCode":"37"},{"code":"371082009225","name":"东北山村委会","streetCode":"371082009","areaCode":"371082","cityCode":"3710","provinceCode":"37"},{"code":"371082009226","name":"褚家村委会","streetCode":"371082009","areaCode":"371082","cityCode":"3710","provinceCode":"37"},{"code":"371082009227","name":"东龙家村委会","streetCode":"371082009","areaCode":"371082","cityCode":"3710","provinceCode":"37"},{"code":"371082009228","name":"小桥村委会","streetCode":"371082009","areaCode":"371082","cityCode":"3710","provinceCode":"37"},{"code":"371082009229","name":"亮甲沟村委会","streetCode":"371082009","areaCode":"371082","cityCode":"3710","provinceCode":"37"},{"code":"371082009230","name":"福台山村委会","streetCode":"371082009","areaCode":"371082","cityCode":"3710","provinceCode":"37"},{"code":"371082009233","name":"墩西张家村委会","streetCode":"371082009","areaCode":"371082","cityCode":"3710","provinceCode":"37"},{"code":"371082009234","name":"迎驾新村村委会","streetCode":"371082009","areaCode":"371082","cityCode":"3710","provinceCode":"37"},{"code":"371082009235","name":"瓦房金家村委会","streetCode":"371082009","areaCode":"371082","cityCode":"3710","provinceCode":"37"},{"code":"371082009239","name":"逍遥山村委会","streetCode":"371082009","areaCode":"371082","cityCode":"3710","provinceCode":"37"},{"code":"371082010002","name":"鸿河社区居民委员会","streetCode":"371082010","areaCode":"371082","cityCode":"3710","provinceCode":"37"},{"code":"371082010200","name":"崂山二疃村委会","streetCode":"371082010","areaCode":"371082","cityCode":"3710","provinceCode":"37"},{"code":"371082010201","name":"崂山大疃村委会","streetCode":"371082010","areaCode":"371082","cityCode":"3710","provinceCode":"37"},{"code":"371082010203","name":"地宝圈村委会","streetCode":"371082010","areaCode":"371082","cityCode":"3710","provinceCode":"37"},{"code":"371082010204","name":"船坞村委会","streetCode":"371082010","areaCode":"371082","cityCode":"3710","provinceCode":"37"},{"code":"371082010210","name":"脉埠村委会","streetCode":"371082010","areaCode":"371082","cityCode":"3710","provinceCode":"37"},{"code":"371082010211","name":"雨夼村委会","streetCode":"371082010","areaCode":"371082","cityCode":"3710","provinceCode":"37"},{"code":"371082010212","name":"宁家村委会","streetCode":"371082010","areaCode":"371082","cityCode":"3710","provinceCode":"37"},{"code":"371082010213","name":"古塔村委会","streetCode":"371082010","areaCode":"371082","cityCode":"3710","provinceCode":"37"},{"code":"371082010214","name":"古塔东庄村委会","streetCode":"371082010","areaCode":"371082","cityCode":"3710","provinceCode":"37"},{"code":"371082010215","name":"崂山屯村委会","streetCode":"371082010","areaCode":"371082","cityCode":"3710","provinceCode":"37"},{"code":"371082010216","name":"柳家庄村委会","streetCode":"371082010","areaCode":"371082","cityCode":"3710","provinceCode":"37"},{"code":"371082010218","name":"罗家庄村委会","streetCode":"371082010","areaCode":"371082","cityCode":"3710","provinceCode":"37"},{"code":"371082010219","name":"鲁家村委会","streetCode":"371082010","areaCode":"371082","cityCode":"3710","provinceCode":"37"},{"code":"371082010220","name":"毕家屯村委会","streetCode":"371082010","areaCode":"371082","cityCode":"3710","provinceCode":"37"},{"code":"371082010221","name":"烟墩讲村委会","streetCode":"371082010","areaCode":"371082","cityCode":"3710","provinceCode":"37"},{"code":"371082010222","name":"神道村委会","streetCode":"371082010","areaCode":"371082","cityCode":"3710","provinceCode":"37"},{"code":"371082010223","name":"大迟家村委会","streetCode":"371082010","areaCode":"371082","cityCode":"3710","provinceCode":"37"},{"code":"371082010225","name":"小河于家村委会","streetCode":"371082010","areaCode":"371082","cityCode":"3710","provinceCode":"37"},{"code":"371082010400","name":"崂山街道办事处大学城居委会","streetCode":"371082010","areaCode":"371082","cityCode":"3710","provinceCode":"37"},{"code":"371082101001","name":"瀛波社区居委会","streetCode":"371082101","areaCode":"371082","cityCode":"3710","provinceCode":"37"},{"code":"371082101200","name":"英西庄村委会","streetCode":"371082101","areaCode":"371082","cityCode":"3710","provinceCode":"37"},{"code":"371082101201","name":"小讲村委会","streetCode":"371082101","areaCode":"371082","cityCode":"3710","provinceCode":"37"},{"code":"371082101202","name":"关家村委会","streetCode":"371082101","areaCode":"371082","cityCode":"3710","provinceCode":"37"},{"code":"371082101203","name":"庄上宋家村委会","streetCode":"371082101","areaCode":"371082","cityCode":"3710","provinceCode":"37"},{"code":"371082101204","name":"大顶山村委会","streetCode":"371082101","areaCode":"371082","cityCode":"3710","provinceCode":"37"},{"code":"371082101205","name":"卧龙王家村委会","streetCode":"371082101","areaCode":"371082","cityCode":"3710","provinceCode":"37"},{"code":"371082101206","name":"中我岛村委会","streetCode":"371082101","areaCode":"371082","cityCode":"3710","provinceCode":"37"},{"code":"371082101207","name":"北我岛村委会","streetCode":"371082101","areaCode":"371082","cityCode":"3710","provinceCode":"37"},{"code":"371082101208","name":"金角港村委会","streetCode":"371082101","areaCode":"371082","cityCode":"3710","provinceCode":"37"},{"code":"371082101209","name":"泊西崖村委会","streetCode":"371082101","areaCode":"371082","cityCode":"3710","provinceCode":"37"},{"code":"371082101210","name":"南郑家村委会","streetCode":"371082101","areaCode":"371082","cityCode":"3710","provinceCode":"37"},{"code":"371082101211","name":"项家寨村委会","streetCode":"371082101","areaCode":"371082","cityCode":"3710","provinceCode":"37"},{"code":"371082101212","name":"陈冯庄村委会","streetCode":"371082101","areaCode":"371082","cityCode":"3710","provinceCode":"37"},{"code":"371082101213","name":"初家泊村委会","streetCode":"371082101","areaCode":"371082","cityCode":"3710","provinceCode":"37"},{"code":"371082101214","name":"山后王家村委会","streetCode":"371082101","areaCode":"371082","cityCode":"3710","provinceCode":"37"},{"code":"371082101215","name":"桥子沟村委会","streetCode":"371082101","areaCode":"371082","cityCode":"3710","provinceCode":"37"},{"code":"371082101216","name":"沟陈家村委会","streetCode":"371082101","areaCode":"371082","cityCode":"3710","provinceCode":"37"},{"code":"371082101217","name":"关沈屯村委会","streetCode":"371082101","areaCode":"371082","cityCode":"3710","provinceCode":"37"},{"code":"371082101218","name":"张家屯村委会","streetCode":"371082101","areaCode":"371082","cityCode":"3710","provinceCode":"37"},{"code":"371082101226","name":"杨家山村委会","streetCode":"371082101","areaCode":"371082","cityCode":"3710","provinceCode":"37"},{"code":"371082101227","name":"东庄村委会","streetCode":"371082101","areaCode":"371082","cityCode":"3710","provinceCode":"37"},{"code":"371082101228","name":"大苏家村委会","streetCode":"371082101","areaCode":"371082","cityCode":"3710","provinceCode":"37"},{"code":"371082101229","name":"大疃李家村委会","streetCode":"371082101","areaCode":"371082","cityCode":"3710","provinceCode":"37"},{"code":"371082101230","name":"小疃李家村委会","streetCode":"371082101","areaCode":"371082","cityCode":"3710","provinceCode":"37"},{"code":"371082101231","name":"刘家圈村委会","streetCode":"371082101","areaCode":"371082","cityCode":"3710","provinceCode":"37"},{"code":"371082101232","name":"南花园村委会","streetCode":"371082101","areaCode":"371082","cityCode":"3710","provinceCode":"37"},{"code":"371082101233","name":"北花园村委会","streetCode":"371082101","areaCode":"371082","cityCode":"3710","provinceCode":"37"},{"code":"371082101234","name":"凉水泉村委会","streetCode":"371082101","areaCode":"371082","cityCode":"3710","provinceCode":"37"},{"code":"371082101235","name":"宫家山村委会","streetCode":"371082101","areaCode":"371082","cityCode":"3710","provinceCode":"37"},{"code":"371082101236","name":"大疃林家村委会","streetCode":"371082101","areaCode":"371082","cityCode":"3710","provinceCode":"37"},{"code":"371082101237","name":"小疃林家村委会","streetCode":"371082101","areaCode":"371082","cityCode":"3710","provinceCode":"37"},{"code":"371082101241","name":"曲家台村委会","streetCode":"371082101","areaCode":"371082","cityCode":"3710","provinceCode":"37"},{"code":"371082101242","name":"西庙院村委会","streetCode":"371082101","areaCode":"371082","cityCode":"3710","provinceCode":"37"},{"code":"371082101243","name":"东庙院村委会","streetCode":"371082101","areaCode":"371082","cityCode":"3710","provinceCode":"37"},{"code":"371082101244","name":"古里高家村委会","streetCode":"371082101","areaCode":"371082","cityCode":"3710","provinceCode":"37"},{"code":"371082101245","name":"香山前村委会","streetCode":"371082101","areaCode":"371082","cityCode":"3710","provinceCode":"37"},{"code":"371082101246","name":"金角口村委会","streetCode":"371082101","areaCode":"371082","cityCode":"3710","provinceCode":"37"},{"code":"371082101247","name":"白云东村委会","streetCode":"371082101","areaCode":"371082","cityCode":"3710","provinceCode":"37"},{"code":"371082101248","name":"前神堂口村委会","streetCode":"371082101","areaCode":"371082","cityCode":"3710","provinceCode":"37"},{"code":"371082101249","name":"后神堂口村委会","streetCode":"371082101","areaCode":"371082","cityCode":"3710","provinceCode":"37"},{"code":"371082101250","name":"东崮村委会","streetCode":"371082101","areaCode":"371082","cityCode":"3710","provinceCode":"37"},{"code":"371082101252","name":"杏北台村委会","streetCode":"371082101","areaCode":"371082","cityCode":"3710","provinceCode":"37"},{"code":"371082101253","name":"杏南台村委会","streetCode":"371082101","areaCode":"371082","cityCode":"3710","provinceCode":"37"},{"code":"371082101254","name":"杏石硼子村委会","streetCode":"371082101","areaCode":"371082","cityCode":"3710","provinceCode":"37"},{"code":"371082101255","name":"小泊村委会","streetCode":"371082101","areaCode":"371082","cityCode":"3710","provinceCode":"37"},{"code":"371082101256","name":"杏陈家村委会","streetCode":"371082101","areaCode":"371082","cityCode":"3710","provinceCode":"37"},{"code":"371082101257","name":"杏小桥村委会","streetCode":"371082101","areaCode":"371082","cityCode":"3710","provinceCode":"37"},{"code":"371082101258","name":"国家村委会","streetCode":"371082101","areaCode":"371082","cityCode":"3710","provinceCode":"37"},{"code":"371082101259","name":"燕泊村委会","streetCode":"371082101","areaCode":"371082","cityCode":"3710","provinceCode":"37"},{"code":"371082101260","name":"北马道河村委会","streetCode":"371082101","areaCode":"371082","cityCode":"3710","provinceCode":"37"},{"code":"371082101261","name":"苍耳崖村委会","streetCode":"371082101","areaCode":"371082","cityCode":"3710","provinceCode":"37"},{"code":"371082101262","name":"东林村委会","streetCode":"371082101","areaCode":"371082","cityCode":"3710","provinceCode":"37"},{"code":"371082101263","name":"西林村村委会","streetCode":"371082101","areaCode":"371082","cityCode":"3710","provinceCode":"37"},{"code":"371082101264","name":"王家山村委会","streetCode":"371082101","areaCode":"371082","cityCode":"3710","provinceCode":"37"},{"code":"371082101265","name":"石山东村委会","streetCode":"371082101","areaCode":"371082","cityCode":"3710","provinceCode":"37"},{"code":"371082101266","name":"西利查埠村委会","streetCode":"371082101","areaCode":"371082","cityCode":"3710","provinceCode":"37"},{"code":"371082101267","name":"东利查埠村委会","streetCode":"371082101","areaCode":"371082","cityCode":"3710","provinceCode":"37"},{"code":"371082101268","name":"凤凰崖村委会","streetCode":"371082101","areaCode":"371082","cityCode":"3710","provinceCode":"37"},{"code":"371082101270","name":"南马道河村委会","streetCode":"371082101","areaCode":"371082","cityCode":"3710","provinceCode":"37"},{"code":"371082101271","name":"东烟墩村委会","streetCode":"371082101","areaCode":"371082","cityCode":"3710","provinceCode":"37"},{"code":"371082101272","name":"后疃村委会","streetCode":"371082101","areaCode":"371082","cityCode":"3710","provinceCode":"37"},{"code":"371082101273","name":"沟崖张家村委会","streetCode":"371082101","areaCode":"371082","cityCode":"3710","provinceCode":"37"},{"code":"371082101274","name":"俚岛村委会","streetCode":"371082101","areaCode":"371082","cityCode":"3710","provinceCode":"37"},{"code":"371082101275","name":"峨石山村委会","streetCode":"371082101","areaCode":"371082","cityCode":"3710","provinceCode":"37"},{"code":"371082101276","name":"大庄许家村委会","streetCode":"371082101","areaCode":"371082","cityCode":"3710","provinceCode":"37"},{"code":"371082101277","name":"瓦屋石村委会","streetCode":"371082101","areaCode":"371082","cityCode":"3710","provinceCode":"37"},{"code":"371082101278","name":"南我岛村委会","streetCode":"371082101","areaCode":"371082","cityCode":"3710","provinceCode":"37"},{"code":"371082101279","name":"东高家村委会","streetCode":"371082101","areaCode":"371082","cityCode":"3710","provinceCode":"37"},{"code":"371082101280","name":"草岛寨村委会","streetCode":"371082101","areaCode":"371082","cityCode":"3710","provinceCode":"37"},{"code":"371082101281","name":"颜家村委会","streetCode":"371082101","areaCode":"371082","cityCode":"3710","provinceCode":"37"},{"code":"371082101282","name":"烟墩角村委会","streetCode":"371082101","areaCode":"371082","cityCode":"3710","provinceCode":"37"},{"code":"371082102002","name":"马山社区居委会","streetCode":"371082102","areaCode":"371082","cityCode":"3710","provinceCode":"37"},{"code":"371082102004","name":"西霞口社区居委会","streetCode":"371082102","areaCode":"371082","cityCode":"3710","provinceCode":"37"},{"code":"371082102014","name":"骏龙社区居民委员会","streetCode":"371082102","areaCode":"371082","cityCode":"3710","provinceCode":"37"},{"code":"371082102200","name":"成山四村委会","streetCode":"371082102","areaCode":"371082","cityCode":"3710","provinceCode":"37"},{"code":"371082102201","name":"成山一村委会","streetCode":"371082102","areaCode":"371082","cityCode":"3710","provinceCode":"37"},{"code":"371082102202","name":"成山二村委会","streetCode":"371082102","areaCode":"371082","cityCode":"3710","provinceCode":"37"},{"code":"371082102203","name":"成山三村委会","streetCode":"371082102","areaCode":"371082","cityCode":"3710","provinceCode":"37"},{"code":"371082102204","name":"成山五村委会","streetCode":"371082102","areaCode":"371082","cityCode":"3710","provinceCode":"37"},{"code":"371082102205","name":"成山六村委会","streetCode":"371082102","areaCode":"371082","cityCode":"3710","provinceCode":"37"},{"code":"371082102206","name":"黄埠村委会","streetCode":"371082102","areaCode":"371082","cityCode":"3710","provinceCode":"37"},{"code":"371082102210","name":"岳家庄村委会","streetCode":"371082102","areaCode":"371082","cityCode":"3710","provinceCode":"37"},{"code":"371082102211","name":"北曲格村委会","streetCode":"371082102","areaCode":"371082","cityCode":"3710","provinceCode":"37"},{"code":"371082102212","name":"南曲格村委会","streetCode":"371082102","areaCode":"371082","cityCode":"3710","provinceCode":"37"},{"code":"371082102213","name":"宫家庄村委会","streetCode":"371082102","areaCode":"371082","cityCode":"3710","provinceCode":"37"},{"code":"371082102214","name":"北郑家村委会","streetCode":"371082102","areaCode":"371082","cityCode":"3710","provinceCode":"37"},{"code":"371082102215","name":"黄埠山前村委会","streetCode":"371082102","areaCode":"371082","cityCode":"3710","provinceCode":"37"},{"code":"371082102216","name":"瓦房姚家村委会","streetCode":"371082102","areaCode":"371082","cityCode":"3710","provinceCode":"37"},{"code":"371082102217","name":"石水河西村委会","streetCode":"371082102","areaCode":"371082","cityCode":"3710","provinceCode":"37"},{"code":"371082102222","name":"北盐滩村委会","streetCode":"371082102","areaCode":"371082","cityCode":"3710","provinceCode":"37"},{"code":"371082102223","name":"秦格村委会","streetCode":"371082102","areaCode":"371082","cityCode":"3710","provinceCode":"37"},{"code":"371082102224","name":"沟黄家村委会","streetCode":"371082102","areaCode":"371082","cityCode":"3710","provinceCode":"37"},{"code":"371082102225","name":"南泊子村委会","streetCode":"371082102","areaCode":"371082","cityCode":"3710","provinceCode":"37"},{"code":"371082102226","name":"北泊子村委会","streetCode":"371082102","areaCode":"371082","cityCode":"3710","provinceCode":"37"},{"code":"371082102227","name":"沟刘家村委会","streetCode":"371082102","areaCode":"371082","cityCode":"3710","provinceCode":"37"},{"code":"371082102228","name":"南盐滩村委会","streetCode":"371082102","areaCode":"371082","cityCode":"3710","provinceCode":"37"},{"code":"371082102229","name":"讲后村委会","streetCode":"371082102","areaCode":"371082","cityCode":"3710","provinceCode":"37"},{"code":"371082102230","name":"葛家村委会","streetCode":"371082102","areaCode":"371082","cityCode":"3710","provinceCode":"37"},{"code":"371082102232","name":"车祝沟村委会","streetCode":"371082102","areaCode":"371082","cityCode":"3710","provinceCode":"37"},{"code":"371082102234","name":"马山寨村委会","streetCode":"371082102","areaCode":"371082","cityCode":"3710","provinceCode":"37"},{"code":"371082102235","name":"夏疃村委会","streetCode":"371082102","areaCode":"371082","cityCode":"3710","provinceCode":"37"},{"code":"371082102236","name":"马山大疃村委会","streetCode":"371082102","areaCode":"371082","cityCode":"3710","provinceCode":"37"},{"code":"371082102237","name":"沙沟村委会","streetCode":"371082102","areaCode":"371082","cityCode":"3710","provinceCode":"37"},{"code":"371082102238","name":"磨山村委会","streetCode":"371082102","areaCode":"371082","cityCode":"3710","provinceCode":"37"},{"code":"371082102239","name":"东张家庄村委会","streetCode":"371082102","areaCode":"371082","cityCode":"3710","provinceCode":"37"},{"code":"371082102240","name":"小岗南头村委会","streetCode":"371082102","areaCode":"371082","cityCode":"3710","provinceCode":"37"},{"code":"371082102241","name":"城东郭家村委会","streetCode":"371082102","areaCode":"371082","cityCode":"3710","provinceCode":"37"},{"code":"371082102242","name":"大岗村委会","streetCode":"371082102","areaCode":"371082","cityCode":"3710","provinceCode":"37"},{"code":"371082102243","name":"松埠嘴村委会","streetCode":"371082102","areaCode":"371082","cityCode":"3710","provinceCode":"37"},{"code":"371082102244","name":"蒲家泊村委会","streetCode":"371082102","areaCode":"371082","cityCode":"3710","provinceCode":"37"},{"code":"371082102245","name":"大石家泊村委会","streetCode":"371082102","areaCode":"371082","cityCode":"3710","provinceCode":"37"},{"code":"371082102246","name":"小石家泊村委会","streetCode":"371082102","areaCode":"371082","cityCode":"3710","provinceCode":"37"},{"code":"371082102247","name":"马家疃村委会","streetCode":"371082102","areaCode":"371082","cityCode":"3710","provinceCode":"37"},{"code":"371082102248","name":"大西庄村委会","streetCode":"371082102","areaCode":"371082","cityCode":"3710","provinceCode":"37"},{"code":"371082102249","name":"小西庄村委会","streetCode":"371082102","areaCode":"371082","cityCode":"3710","provinceCode":"37"},{"code":"371082102250","name":"泊南崖村委会","streetCode":"371082102","areaCode":"371082","cityCode":"3710","provinceCode":"37"},{"code":"371082102252","name":"东岗村委会","streetCode":"371082102","areaCode":"371082","cityCode":"3710","provinceCode":"37"},{"code":"371082102254","name":"瓦房庄村委会","streetCode":"371082102","areaCode":"371082","cityCode":"3710","provinceCode":"37"},{"code":"371082102255","name":"礼村村委会","streetCode":"371082102","areaCode":"371082","cityCode":"3710","provinceCode":"37"},{"code":"371082102256","name":"落凤岗村委会","streetCode":"371082102","areaCode":"371082","cityCode":"3710","provinceCode":"37"},{"code":"371082102257","name":"卧龙村委会","streetCode":"371082102","areaCode":"371082","cityCode":"3710","provinceCode":"37"},{"code":"371082102258","name":"东霞口村委会","streetCode":"371082102","areaCode":"371082","cityCode":"3710","provinceCode":"37"},{"code":"371082102259","name":"河口村委会","streetCode":"371082102","areaCode":"371082","cityCode":"3710","provinceCode":"37"},{"code":"371082103200","name":"埠柳村委会","streetCode":"371082103","areaCode":"371082","cityCode":"3710","provinceCode":"37"},{"code":"371082103201","name":"上疃村委会","streetCode":"371082103","areaCode":"371082","cityCode":"3710","provinceCode":"37"},{"code":"371082103202","name":"车古村委会","streetCode":"371082103","areaCode":"371082","cityCode":"3710","provinceCode":"37"},{"code":"371082103203","name":"凤头村委会","streetCode":"371082103","areaCode":"371082","cityCode":"3710","provinceCode":"37"},{"code":"371082103204","name":"河西车家村委会","streetCode":"371082103","areaCode":"371082","cityCode":"3710","provinceCode":"37"},{"code":"371082103205","name":"不夜村委会","streetCode":"371082103","areaCode":"371082","cityCode":"3710","provinceCode":"37"},{"code":"371082103206","name":"南港西村委会","streetCode":"371082103","areaCode":"371082","cityCode":"3710","provinceCode":"37"},{"code":"371082103207","name":"沙楼庄村委会","streetCode":"371082103","areaCode":"371082","cityCode":"3710","provinceCode":"37"},{"code":"371082103208","name":"梁南庄村委会","streetCode":"371082103","areaCode":"371082","cityCode":"3710","provinceCode":"37"},{"code":"371082103209","name":"东初家村委会","streetCode":"371082103","areaCode":"371082","cityCode":"3710","provinceCode":"37"},{"code":"371082103210","name":"西初家庄村委会","streetCode":"371082103","areaCode":"371082","cityCode":"3710","provinceCode":"37"},{"code":"371082103211","name":"学福村委会","streetCode":"371082103","areaCode":"371082","cityCode":"3710","provinceCode":"37"},{"code":"371082103212","name":"西豆山村委会","streetCode":"371082103","areaCode":"371082","cityCode":"3710","provinceCode":"37"},{"code":"371082103213","name":"汤家村委会","streetCode":"371082103","areaCode":"371082","cityCode":"3710","provinceCode":"37"},{"code":"371082103214","name":"孔家村委会","streetCode":"371082103","areaCode":"371082","cityCode":"3710","provinceCode":"37"},{"code":"371082103215","name":"万家河村委会","streetCode":"371082103","areaCode":"371082","cityCode":"3710","provinceCode":"37"},{"code":"371082103216","name":"坎地村委会","streetCode":"371082103","areaCode":"371082","cityCode":"3710","provinceCode":"37"},{"code":"371082103217","name":"营洛村委会","streetCode":"371082103","areaCode":"371082","cityCode":"3710","provinceCode":"37"},{"code":"371082103218","name":"蓦驾山村委会","streetCode":"371082103","areaCode":"371082","cityCode":"3710","provinceCode":"37"},{"code":"371082103219","name":"汉章泊村委会","streetCode":"371082103","areaCode":"371082","cityCode":"3710","provinceCode":"37"},{"code":"371082103220","name":"东下庄村委会","streetCode":"371082103","areaCode":"371082","cityCode":"3710","provinceCode":"37"},{"code":"371082103221","name":"杭上村委会","streetCode":"371082103","areaCode":"371082","cityCode":"3710","provinceCode":"37"},{"code":"371082103222","name":"南兰格村委会","streetCode":"371082103","areaCode":"371082","cityCode":"3710","provinceCode":"37"},{"code":"371082103223","name":"北兰格村委会","streetCode":"371082103","areaCode":"371082","cityCode":"3710","provinceCode":"37"},{"code":"371082103224","name":"上埠头村委会","streetCode":"371082103","areaCode":"371082","cityCode":"3710","provinceCode":"37"},{"code":"371082103225","name":"西张格村委会","streetCode":"371082103","areaCode":"371082","cityCode":"3710","provinceCode":"37"},{"code":"371082103226","name":"东张格村委会","streetCode":"371082103","areaCode":"371082","cityCode":"3710","provinceCode":"37"},{"code":"371082103227","name":"西姚家山村委会","streetCode":"371082103","areaCode":"371082","cityCode":"3710","provinceCode":"37"},{"code":"371082103228","name":"东姚家山村委会","streetCode":"371082103","areaCode":"371082","cityCode":"3710","provinceCode":"37"},{"code":"371082103229","name":"大梁家村委会","streetCode":"371082103","areaCode":"371082","cityCode":"3710","provinceCode":"37"},{"code":"371082103230","name":"小梁家村委会","streetCode":"371082103","areaCode":"371082","cityCode":"3710","provinceCode":"37"},{"code":"371082103231","name":"石桥村委会","streetCode":"371082103","areaCode":"371082","cityCode":"3710","provinceCode":"37"},{"code":"371082103232","name":"现都村委会","streetCode":"371082103","areaCode":"371082","cityCode":"3710","provinceCode":"37"},{"code":"371082103233","name":"虎台村委会","streetCode":"371082103","areaCode":"371082","cityCode":"3710","provinceCode":"37"},{"code":"371082103234","name":"邹家村委会","streetCode":"371082103","areaCode":"371082","cityCode":"3710","provinceCode":"37"},{"code":"371082103235","name":"黄沟村委会","streetCode":"371082103","areaCode":"371082","cityCode":"3710","provinceCode":"37"},{"code":"371082103236","name":"杜家村委会","streetCode":"371082103","areaCode":"371082","cityCode":"3710","provinceCode":"37"},{"code":"371082104002","name":"那香海社区居委会","streetCode":"371082104","areaCode":"371082","cityCode":"3710","provinceCode":"37"},{"code":"371082104200","name":"大岚头村委会","streetCode":"371082104","areaCode":"371082","cityCode":"3710","provinceCode":"37"},{"code":"371082104201","name":"马格村委会","streetCode":"371082104","areaCode":"371082","cityCode":"3710","provinceCode":"37"},{"code":"371082104202","name":"西星日村委会","streetCode":"371082104","areaCode":"371082","cityCode":"3710","provinceCode":"37"},{"code":"371082104203","name":"东星日村委会","streetCode":"371082104","areaCode":"371082","cityCode":"3710","provinceCode":"37"},{"code":"371082104204","name":"王官庄村委会","streetCode":"371082104","areaCode":"371082","cityCode":"3710","provinceCode":"37"},{"code":"371082104205","name":"北港西村委会","streetCode":"371082104","areaCode":"371082","cityCode":"3710","provinceCode":"37"},{"code":"371082104206","name":"黄山口村委会","streetCode":"371082104","areaCode":"371082","cityCode":"3710","provinceCode":"37"},{"code":"371082104207","name":"山后鞠家村委会","streetCode":"371082104","areaCode":"371082","cityCode":"3710","provinceCode":"37"},{"code":"371082104208","name":"港山后村委会","streetCode":"371082104","areaCode":"371082","cityCode":"3710","provinceCode":"37"},{"code":"371082104209","name":"墩后村委会","streetCode":"371082104","areaCode":"371082","cityCode":"3710","provinceCode":"37"},{"code":"371082104210","name":"泊子周家村委会","streetCode":"371082104","areaCode":"371082","cityCode":"3710","provinceCode":"37"},{"code":"371082104211","name":"北城村委会","streetCode":"371082104","areaCode":"371082","cityCode":"3710","provinceCode":"37"},{"code":"371082104212","name":"旭口村委会","streetCode":"371082104","areaCode":"371082","cityCode":"3710","provinceCode":"37"},{"code":"371082104213","name":"巍巍村委会","streetCode":"371082104","areaCode":"371082","cityCode":"3710","provinceCode":"37"},{"code":"371082104214","name":"龙家村委会","streetCode":"371082104","areaCode":"371082","cityCode":"3710","provinceCode":"37"},{"code":"371082104215","name":"大西村委会","streetCode":"371082104","areaCode":"371082","cityCode":"3710","provinceCode":"37"},{"code":"371082104216","name":"小西村委会","streetCode":"371082104","areaCode":"371082","cityCode":"3710","provinceCode":"37"},{"code":"371082104217","name":"王家村委会","streetCode":"371082104","areaCode":"371082","cityCode":"3710","provinceCode":"37"},{"code":"371082104218","name":"灰树村委会","streetCode":"371082104","areaCode":"371082","cityCode":"3710","provinceCode":"37"},{"code":"371082104219","name":"李家村委会","streetCode":"371082104","areaCode":"371082","cityCode":"3710","provinceCode":"37"},{"code":"371082104220","name":"鸡鸣岛村委会","streetCode":"371082104","areaCode":"371082","cityCode":"3710","provinceCode":"37"},{"code":"371082105200","name":"大夏庄村委会","streetCode":"371082105","areaCode":"371082","cityCode":"3710","provinceCode":"37"},{"code":"371082105201","name":"小夏庄村委会","streetCode":"371082105","areaCode":"371082","cityCode":"3710","provinceCode":"37"},{"code":"371082105202","name":"马安埠村委会","streetCode":"371082105","areaCode":"371082","cityCode":"3710","provinceCode":"37"},{"code":"371082105203","name":"北山杨家村委会","streetCode":"371082105","areaCode":"371082","cityCode":"3710","provinceCode":"37"},{"code":"371082105204","name":"北山冷家村委会","streetCode":"371082105","areaCode":"371082","cityCode":"3710","provinceCode":"37"},{"code":"371082105205","name":"同家庄村委会","streetCode":"371082105","areaCode":"371082","cityCode":"3710","provinceCode":"37"},{"code":"371082105206","name":"战家村委会","streetCode":"371082105","areaCode":"371082","cityCode":"3710","provinceCode":"37"},{"code":"371082105207","name":"石硼丁家村委会","streetCode":"371082105","areaCode":"371082","cityCode":"3710","provinceCode":"37"},{"code":"371082105208","name":"东藏村村委会","streetCode":"371082105","areaCode":"371082","cityCode":"3710","provinceCode":"37"},{"code":"371082105209","name":"兴隆村委会","streetCode":"371082105","areaCode":"371082","cityCode":"3710","provinceCode":"37"},{"code":"371082105210","name":"前寨村委会","streetCode":"371082105","areaCode":"371082","cityCode":"3710","provinceCode":"37"},{"code":"371082105211","name":"后寨村委会","streetCode":"371082105","areaCode":"371082","cityCode":"3710","provinceCode":"37"},{"code":"371082105212","name":"前苏格村委会","streetCode":"371082105","areaCode":"371082","cityCode":"3710","provinceCode":"37"},{"code":"371082105213","name":"石硼阎家村委会","streetCode":"371082105","areaCode":"371082","cityCode":"3710","provinceCode":"37"},{"code":"371082105214","name":"甲夼王家村委会","streetCode":"371082105","areaCode":"371082","cityCode":"3710","provinceCode":"37"},{"code":"371082105215","name":"甲夼马家村委会","streetCode":"371082105","areaCode":"371082","cityCode":"3710","provinceCode":"37"},{"code":"371082105216","name":"甲夼曲家村委会","streetCode":"371082105","areaCode":"371082","cityCode":"3710","provinceCode":"37"},{"code":"371082105217","name":"青埠岭村委会","streetCode":"371082105","areaCode":"371082","cityCode":"3710","provinceCode":"37"},{"code":"371082105218","name":"江林庄村委会","streetCode":"371082105","areaCode":"371082","cityCode":"3710","provinceCode":"37"},{"code":"371082105220","name":"雷家庄村委会","streetCode":"371082105","areaCode":"371082","cityCode":"3710","provinceCode":"37"},{"code":"371082105221","name":"哈山村委会","streetCode":"371082105","areaCode":"371082","cityCode":"3710","provinceCode":"37"},{"code":"371082105222","name":"大胪村委会","streetCode":"371082105","areaCode":"371082","cityCode":"3710","provinceCode":"37"},{"code":"371082105223","name":"二胪村委会","streetCode":"371082105","areaCode":"371082","cityCode":"3710","provinceCode":"37"},{"code":"371082105224","name":"三胪村委会","streetCode":"371082105","areaCode":"371082","cityCode":"3710","provinceCode":"37"},{"code":"371082105225","name":"圈杨家村委会","streetCode":"371082105","areaCode":"371082","cityCode":"3710","provinceCode":"37"},{"code":"371082105227","name":"楚家村委会","streetCode":"371082105","areaCode":"371082","cityCode":"3710","provinceCode":"37"},{"code":"371082105228","name":"上郭家村委会","streetCode":"371082105","areaCode":"371082","cityCode":"3710","provinceCode":"37"},{"code":"371082105229","name":"下郭家村委会","streetCode":"371082105","areaCode":"371082","cityCode":"3710","provinceCode":"37"},{"code":"371082105231","name":"寨子讲村委会","streetCode":"371082105","areaCode":"371082","cityCode":"3710","provinceCode":"37"},{"code":"371082105232","name":"河北崖村委会","streetCode":"371082105","areaCode":"371082","cityCode":"3710","provinceCode":"37"},{"code":"371082106200","name":"北崖西村委会","streetCode":"371082106","areaCode":"371082","cityCode":"3710","provinceCode":"37"},{"code":"371082106201","name":"卧龙戴家村委会","streetCode":"371082106","areaCode":"371082","cityCode":"3710","provinceCode":"37"},{"code":"371082106202","name":"潘家沟村委会","streetCode":"371082106","areaCode":"371082","cityCode":"3710","provinceCode":"37"},{"code":"371082106203","name":"丛家庄村委会","streetCode":"371082106","areaCode":"371082","cityCode":"3710","provinceCode":"37"},{"code":"371082106204","name":"朱家夼村委会","streetCode":"371082106","areaCode":"371082","cityCode":"3710","provinceCode":"37"},{"code":"371082106205","name":"西柳村委会","streetCode":"371082106","areaCode":"371082","cityCode":"3710","provinceCode":"37"},{"code":"371082106206","name":"北柳村委会","streetCode":"371082106","areaCode":"371082","cityCode":"3710","provinceCode":"37"},{"code":"371082106207","name":"南柳村委会","streetCode":"371082106","areaCode":"371082","cityCode":"3710","provinceCode":"37"},{"code":"371082106208","name":"林道沟村委会","streetCode":"371082106","areaCode":"371082","cityCode":"3710","provinceCode":"37"},{"code":"371082106209","name":"东双顶村委会","streetCode":"371082106","areaCode":"371082","cityCode":"3710","provinceCode":"37"},{"code":"371082106210","name":"西双顶村委会","streetCode":"371082106","areaCode":"371082","cityCode":"3710","provinceCode":"37"},{"code":"371082106211","name":"五甲村委会","streetCode":"371082106","areaCode":"371082","cityCode":"3710","provinceCode":"37"},{"code":"371082106212","name":"万马庄村委会","streetCode":"371082106","areaCode":"371082","cityCode":"3710","provinceCode":"37"},{"code":"371082106213","name":"石硼子村委会","streetCode":"371082106","areaCode":"371082","cityCode":"3710","provinceCode":"37"},{"code":"371082106214","name":"戴家庵村委会","streetCode":"371082106","areaCode":"371082","cityCode":"3710","provinceCode":"37"},{"code":"371082106215","name":"桥南头村委会","streetCode":"371082106","areaCode":"371082","cityCode":"3710","provinceCode":"37"},{"code":"371082106216","name":"松里村委会","streetCode":"371082106","areaCode":"371082","cityCode":"3710","provinceCode":"37"},{"code":"371082106217","name":"西埠前村委会","streetCode":"371082106","areaCode":"371082","cityCode":"3710","provinceCode":"37"},{"code":"371082106218","name":"埠东夼村委会","streetCode":"371082106","areaCode":"371082","cityCode":"3710","provinceCode":"37"},{"code":"371082106219","name":"南崖西村委会","streetCode":"371082106","areaCode":"371082","cityCode":"3710","provinceCode":"37"},{"code":"371082106220","name":"龙床村委会","streetCode":"371082106","areaCode":"371082","cityCode":"3710","provinceCode":"37"},{"code":"371082106221","name":"北新庄村委会","streetCode":"371082106","areaCode":"371082","cityCode":"3710","provinceCode":"37"},{"code":"371082106222","name":"车家庄村委会","streetCode":"371082106","areaCode":"371082","cityCode":"3710","provinceCode":"37"},{"code":"371082106223","name":"林家庄村委会","streetCode":"371082106","areaCode":"371082","cityCode":"3710","provinceCode":"37"},{"code":"371082106224","name":"前庵村委会","streetCode":"371082106","areaCode":"371082","cityCode":"3710","provinceCode":"37"},{"code":"371082106225","name":"上观村委会","streetCode":"371082106","areaCode":"371082","cityCode":"3710","provinceCode":"37"},{"code":"371082106226","name":"后庵村委会","streetCode":"371082106","areaCode":"371082","cityCode":"3710","provinceCode":"37"},{"code":"371082106227","name":"管家村委会","streetCode":"371082106","areaCode":"371082","cityCode":"3710","provinceCode":"37"},{"code":"371082106228","name":"朱埠村委会","streetCode":"371082106","areaCode":"371082","cityCode":"3710","provinceCode":"37"},{"code":"371082106229","name":"小山口村委会","streetCode":"371082106","areaCode":"371082","cityCode":"3710","provinceCode":"37"},{"code":"371082106230","name":"大山口村委会","streetCode":"371082106","areaCode":"371082","cityCode":"3710","provinceCode":"37"},{"code":"371082106231","name":"上庄村委会","streetCode":"371082106","areaCode":"371082","cityCode":"3710","provinceCode":"37"},{"code":"371082106232","name":"崖后村委会","streetCode":"371082106","areaCode":"371082","cityCode":"3710","provinceCode":"37"},{"code":"371082106233","name":"院东村委会","streetCode":"371082106","areaCode":"371082","cityCode":"3710","provinceCode":"37"},{"code":"371082106234","name":"大蒿泊村委会","streetCode":"371082106","areaCode":"371082","cityCode":"3710","provinceCode":"37"},{"code":"371082106235","name":"山河村委会","streetCode":"371082106","areaCode":"371082","cityCode":"3710","provinceCode":"37"},{"code":"371082106236","name":"小刘家村委会","streetCode":"371082106","areaCode":"371082","cityCode":"3710","provinceCode":"37"},{"code":"371082106237","name":"隆峰村村委会","streetCode":"371082106","areaCode":"371082","cityCode":"3710","provinceCode":"37"},{"code":"371082106240","name":"山河吕家村委会","streetCode":"371082106","areaCode":"371082","cityCode":"3710","provinceCode":"37"},{"code":"371082106241","name":"后苏格村委会","streetCode":"371082106","areaCode":"371082","cityCode":"3710","provinceCode":"37"},{"code":"371082106242","name":"西藏村村委会","streetCode":"371082106","areaCode":"371082","cityCode":"3710","provinceCode":"37"},{"code":"371082106243","name":"庄上王家村委会","streetCode":"371082106","areaCode":"371082","cityCode":"3710","provinceCode":"37"},{"code":"371082106245","name":"东埠前村委会","streetCode":"371082106","areaCode":"371082","cityCode":"3710","provinceCode":"37"},{"code":"371082106246","name":"前高家庄村委会","streetCode":"371082106","areaCode":"371082","cityCode":"3710","provinceCode":"37"},{"code":"371082106247","name":"后高家庄村委会","streetCode":"371082106","areaCode":"371082","cityCode":"3710","provinceCode":"37"},{"code":"371082106248","name":"詹家庄村委会","streetCode":"371082106","areaCode":"371082","cityCode":"3710","provinceCode":"37"},{"code":"371082107200","name":"讲上岳家村委会","streetCode":"371082107","areaCode":"371082","cityCode":"3710","provinceCode":"37"},{"code":"371082107201","name":"塘子崖村委会","streetCode":"371082107","areaCode":"371082","cityCode":"3710","provinceCode":"37"},{"code":"371082107202","name":"西苑庄村委会","streetCode":"371082107","areaCode":"371082","cityCode":"3710","provinceCode":"37"},{"code":"371082107204","name":"东苑庄村委会","streetCode":"371082107","areaCode":"371082","cityCode":"3710","provinceCode":"37"},{"code":"371082107205","name":"陈家埠村委会","streetCode":"371082107","areaCode":"371082","cityCode":"3710","provinceCode":"37"},{"code":"371082107206","name":"马家岭村委会","streetCode":"371082107","areaCode":"371082","cityCode":"3710","provinceCode":"37"},{"code":"371082107207","name":"讲后张家村委会","streetCode":"371082107","areaCode":"371082","cityCode":"3710","provinceCode":"37"},{"code":"371082107208","name":"南流水村委会","streetCode":"371082107","areaCode":"371082","cityCode":"3710","provinceCode":"37"},{"code":"371082107209","name":"王官松村委会","streetCode":"371082107","areaCode":"371082","cityCode":"3710","provinceCode":"37"},{"code":"371082107210","name":"讲上姚家村委会","streetCode":"371082107","areaCode":"371082","cityCode":"3710","provinceCode":"37"},{"code":"371082107211","name":"土城子村委会","streetCode":"371082107","areaCode":"371082","cityCode":"3710","provinceCode":"37"},{"code":"371082107212","name":"胡家屯村委会","streetCode":"371082107","areaCode":"371082","cityCode":"3710","provinceCode":"37"},{"code":"371082107213","name":"顶子后村委会","streetCode":"371082107","areaCode":"371082","cityCode":"3710","provinceCode":"37"},{"code":"371082107214","name":"北流水村委会","streetCode":"371082107","areaCode":"371082","cityCode":"3710","provinceCode":"37"},{"code":"371082107215","name":"梁子埠村委会","streetCode":"371082107","areaCode":"371082","cityCode":"3710","provinceCode":"37"},{"code":"371082107216","name":"马台王家村委会","streetCode":"371082107","areaCode":"371082","cityCode":"3710","provinceCode":"37"},{"code":"371082107217","name":"马台柯家村委会","streetCode":"371082107","areaCode":"371082","cityCode":"3710","provinceCode":"37"},{"code":"371082107218","name":"马台丛家村委会","streetCode":"371082107","areaCode":"371082","cityCode":"3710","provinceCode":"37"},{"code":"371082107219","name":"马台隋家村委会","streetCode":"371082107","areaCode":"371082","cityCode":"3710","provinceCode":"37"},{"code":"371082107220","name":"前荫子夼村委会","streetCode":"371082107","areaCode":"371082","cityCode":"3710","provinceCode":"37"},{"code":"371082107221","name":"后荫子夼村委会","streetCode":"371082107","areaCode":"371082","cityCode":"3710","provinceCode":"37"},{"code":"371082107222","name":"青岘庄村委会","streetCode":"371082107","areaCode":"371082","cityCode":"3710","provinceCode":"37"},{"code":"371082107223","name":"家堂村委会","streetCode":"371082107","areaCode":"371082","cityCode":"3710","provinceCode":"37"},{"code":"371082107225","name":"头甲村委会","streetCode":"371082107","areaCode":"371082","cityCode":"3710","provinceCode":"37"},{"code":"371082107227","name":"东夏埠村委会","streetCode":"371082107","areaCode":"371082","cityCode":"3710","provinceCode":"37"},{"code":"371082107228","name":"前青顶村委会","streetCode":"371082107","areaCode":"371082","cityCode":"3710","provinceCode":"37"},{"code":"371082107229","name":"雨夼沟村委会","streetCode":"371082107","areaCode":"371082","cityCode":"3710","provinceCode":"37"},{"code":"371082107230","name":"东板石村委会","streetCode":"371082107","areaCode":"371082","cityCode":"3710","provinceCode":"37"},{"code":"371082107231","name":"店子泊村委会","streetCode":"371082107","areaCode":"371082","cityCode":"3710","provinceCode":"37"},{"code":"371082107232","name":"西夏埠村委会","streetCode":"371082107","areaCode":"371082","cityCode":"3710","provinceCode":"37"},{"code":"371082107233","name":"立驾山村委会","streetCode":"371082107","areaCode":"371082","cityCode":"3710","provinceCode":"37"},{"code":"371082107235","name":"南板石村委会","streetCode":"371082107","areaCode":"371082","cityCode":"3710","provinceCode":"37"},{"code":"371082107236","name":"西板石村委会","streetCode":"371082107","areaCode":"371082","cityCode":"3710","provinceCode":"37"},{"code":"371082107238","name":"姜家泊村委会","streetCode":"371082107","areaCode":"371082","cityCode":"3710","provinceCode":"37"},{"code":"371082107239","name":"杨家沟村委会","streetCode":"371082107","areaCode":"371082","cityCode":"3710","provinceCode":"37"},{"code":"371082107240","name":"三冢泊村委会","streetCode":"371082107","areaCode":"371082","cityCode":"3710","provinceCode":"37"},{"code":"371082107241","name":"于家泊村委会","streetCode":"371082107","areaCode":"371082","cityCode":"3710","provinceCode":"37"},{"code":"371082107242","name":"前长湾村委会","streetCode":"371082107","areaCode":"371082","cityCode":"3710","provinceCode":"37"},{"code":"371082107243","name":"兰家庄村委会","streetCode":"371082107","areaCode":"371082","cityCode":"3710","provinceCode":"37"},{"code":"371082108200","name":"滕家村委会","streetCode":"371082108","areaCode":"371082","cityCode":"3710","provinceCode":"37"},{"code":"371082108201","name":"东讲村村委会","streetCode":"371082108","areaCode":"371082","cityCode":"3710","provinceCode":"37"},{"code":"371082108202","name":"西讲村村委会","streetCode":"371082108","areaCode":"371082","cityCode":"3710","provinceCode":"37"},{"code":"371082108203","name":"炮东村委会","streetCode":"371082108","areaCode":"371082","cityCode":"3710","provinceCode":"37"},{"code":"371082108204","name":"茂柞村委会","streetCode":"371082108","areaCode":"371082","cityCode":"3710","provinceCode":"37"},{"code":"371082108205","name":"东滩郭家村委会","streetCode":"371082108","areaCode":"371082","cityCode":"3710","provinceCode":"37"},{"code":"371082108206","name":"西滩郭家村委会","streetCode":"371082108","areaCode":"371082","cityCode":"3710","provinceCode":"37"},{"code":"371082108207","name":"大章村委会","streetCode":"371082108","areaCode":"371082","cityCode":"3710","provinceCode":"37"},{"code":"371082108208","name":"二章村委会","streetCode":"371082108","areaCode":"371082","cityCode":"3710","provinceCode":"37"},{"code":"371082108209","name":"三章村委会","streetCode":"371082108","areaCode":"371082","cityCode":"3710","provinceCode":"37"},{"code":"371082108210","name":"五章村委会","streetCode":"371082108","areaCode":"371082","cityCode":"3710","provinceCode":"37"},{"code":"371082108211","name":"东初家村委会","streetCode":"371082108","areaCode":"371082","cityCode":"3710","provinceCode":"37"},{"code":"371082108212","name":"西初家村委会","streetCode":"371082108","areaCode":"371082","cityCode":"3710","provinceCode":"37"},{"code":"371082108213","name":"草卜屯村委会","streetCode":"371082108","areaCode":"371082","cityCode":"3710","provinceCode":"37"},{"code":"371082108214","name":"桑梓村委会","streetCode":"371082108","areaCode":"371082","cityCode":"3710","provinceCode":"37"},{"code":"371082108215","name":"康家村委会","streetCode":"371082108","areaCode":"371082","cityCode":"3710","provinceCode":"37"},{"code":"371082108216","name":"打铁孙家村委会","streetCode":"371082108","areaCode":"371082","cityCode":"3710","provinceCode":"37"},{"code":"371082108217","name":"沟曹家村委会","streetCode":"371082108","areaCode":"371082","cityCode":"3710","provinceCode":"37"},{"code":"371082108218","name":"西寺村委会","streetCode":"371082108","areaCode":"371082","cityCode":"3710","provinceCode":"37"},{"code":"371082108219","name":"北庄村委会","streetCode":"371082108","areaCode":"371082","cityCode":"3710","provinceCode":"37"},{"code":"371082108220","name":"曲家沟村委会","streetCode":"371082108","areaCode":"371082","cityCode":"3710","provinceCode":"37"},{"code":"371082108221","name":"小落村委会","streetCode":"371082108","areaCode":"371082","cityCode":"3710","provinceCode":"37"},{"code":"371082108222","name":"下回头村委会","streetCode":"371082108","areaCode":"371082","cityCode":"3710","provinceCode":"37"},{"code":"371082108223","name":"马草夼村委会","streetCode":"371082108","areaCode":"371082","cityCode":"3710","provinceCode":"37"},{"code":"371082108224","name":"大落村委会","streetCode":"371082108","areaCode":"371082","cityCode":"3710","provinceCode":"37"},{"code":"371082108225","name":"不落岛村委会","streetCode":"371082108","areaCode":"371082","cityCode":"3710","provinceCode":"37"},{"code":"371082108226","name":"李家屯村委会","streetCode":"371082108","areaCode":"371082","cityCode":"3710","provinceCode":"37"},{"code":"371082108227","name":"花园村委会","streetCode":"371082108","areaCode":"371082","cityCode":"3710","provinceCode":"37"},{"code":"371082108228","name":"观前泊村委会","streetCode":"371082108","areaCode":"371082","cityCode":"3710","provinceCode":"37"},{"code":"371082108229","name":"东仙王家村委会","streetCode":"371082108","areaCode":"371082","cityCode":"3710","provinceCode":"37"},{"code":"371082108230","name":"西仙王家村委会","streetCode":"371082108","areaCode":"371082","cityCode":"3710","provinceCode":"37"},{"code":"371082108231","name":"单家村委会","streetCode":"371082108","areaCode":"371082","cityCode":"3710","provinceCode":"37"},{"code":"371082108232","name":"高落山村委会","streetCode":"371082108","areaCode":"371082","cityCode":"3710","provinceCode":"37"},{"code":"371082108233","name":"套河村委会","streetCode":"371082108","areaCode":"371082","cityCode":"3710","provinceCode":"37"},{"code":"371082108234","name":"孔家村村委会","streetCode":"371082108","areaCode":"371082","cityCode":"3710","provinceCode":"37"},{"code":"371082108235","name":"西河北村村委会","streetCode":"371082108","areaCode":"371082","cityCode":"3710","provinceCode":"37"},{"code":"371082108236","name":"鲍村村委会","streetCode":"371082108","areaCode":"371082","cityCode":"3710","provinceCode":"37"},{"code":"371082108237","name":"南山殷家村委会","streetCode":"371082108","areaCode":"371082","cityCode":"3710","provinceCode":"37"},{"code":"371082108238","name":"于家庄村委会","streetCode":"371082108","areaCode":"371082","cityCode":"3710","provinceCode":"37"},{"code":"371082108239","name":"张家庄村委会","streetCode":"371082108","areaCode":"371082","cityCode":"3710","provinceCode":"37"},{"code":"371082108240","name":"陈家沟村委会","streetCode":"371082108","areaCode":"371082","cityCode":"3710","provinceCode":"37"},{"code":"371082109200","name":"大疃村村委会","streetCode":"371082109","areaCode":"371082","cityCode":"3710","provinceCode":"37"},{"code":"371082109201","name":"周家庄村委会","streetCode":"371082109","areaCode":"371082","cityCode":"3710","provinceCode":"37"},{"code":"371082109202","name":"迟家店村委会","streetCode":"371082109","areaCode":"371082","cityCode":"3710","provinceCode":"37"},{"code":"371082109203","name":"岳泊庄村委会","streetCode":"371082109","areaCode":"371082","cityCode":"3710","provinceCode":"37"},{"code":"371082109204","name":"柳家屯村委会","streetCode":"371082109","areaCode":"371082","cityCode":"3710","provinceCode":"37"},{"code":"371082109205","name":"南石讲村委会","streetCode":"371082109","areaCode":"371082","cityCode":"3710","provinceCode":"37"},{"code":"371082109206","name":"大泥沟村委会","streetCode":"371082109","areaCode":"371082","cityCode":"3710","provinceCode":"37"},{"code":"371082109207","name":"小泥沟村委会","streetCode":"371082109","areaCode":"371082","cityCode":"3710","provinceCode":"37"},{"code":"371082109208","name":"大卧龙村委会","streetCode":"371082109","areaCode":"371082","cityCode":"3710","provinceCode":"37"},{"code":"371082109209","name":"东塔后村委会","streetCode":"371082109","areaCode":"371082","cityCode":"3710","provinceCode":"37"},{"code":"371082109210","name":"西塔后村委会","streetCode":"371082109","areaCode":"371082","cityCode":"3710","provinceCode":"37"},{"code":"371082109211","name":"孤石吴家村委会","streetCode":"371082109","areaCode":"371082","cityCode":"3710","provinceCode":"37"},{"code":"371082109212","name":"孤石杜家村委会","streetCode":"371082109","areaCode":"371082","cityCode":"3710","provinceCode":"37"},{"code":"371082109213","name":"回里村委会","streetCode":"371082109","areaCode":"371082","cityCode":"3710","provinceCode":"37"},{"code":"371082109214","name":"东沟南疃村委会","streetCode":"371082109","areaCode":"371082","cityCode":"3710","provinceCode":"37"},{"code":"371082109215","name":"东沟北疃村委会","streetCode":"371082109","areaCode":"371082","cityCode":"3710","provinceCode":"37"},{"code":"371082109216","name":"东中窑村委会","streetCode":"371082109","areaCode":"371082","cityCode":"3710","provinceCode":"37"},{"code":"371082109217","name":"西中窑村委会","streetCode":"371082109","areaCode":"371082","cityCode":"3710","provinceCode":"37"},{"code":"371082109218","name":"窑西讲村委会","streetCode":"371082109","areaCode":"371082","cityCode":"3710","provinceCode":"37"},{"code":"371082109219","name":"高家庄村委会","streetCode":"371082109","areaCode":"371082","cityCode":"3710","provinceCode":"37"},{"code":"371082109220","name":"邹山东村委会","streetCode":"371082109","areaCode":"371082","cityCode":"3710","provinceCode":"37"},{"code":"371082109221","name":"后头村委会","streetCode":"371082109","areaCode":"371082","cityCode":"3710","provinceCode":"37"},{"code":"371082109222","name":"黄庄村委会","streetCode":"371082109","areaCode":"371082","cityCode":"3710","provinceCode":"37"},{"code":"371082109223","name":"大珠矶村委会","streetCode":"371082109","areaCode":"371082","cityCode":"3710","provinceCode":"37"},{"code":"371082109224","name":"珠矶店村委会","streetCode":"371082109","areaCode":"371082","cityCode":"3710","provinceCode":"37"},{"code":"371082109225","name":"东徐家村委会","streetCode":"371082109","areaCode":"371082","cityCode":"3710","provinceCode":"37"},{"code":"371082109226","name":"西徐家村委会","streetCode":"371082109","areaCode":"371082","cityCode":"3710","provinceCode":"37"},{"code":"371082109227","name":"下河村委会","streetCode":"371082109","areaCode":"371082","cityCode":"3710","provinceCode":"37"},{"code":"371082109228","name":"双石于家村委会","streetCode":"371082109","areaCode":"371082","cityCode":"3710","provinceCode":"37"},{"code":"371082109229","name":"双石董家村委会","streetCode":"371082109","areaCode":"371082","cityCode":"3710","provinceCode":"37"},{"code":"371082109230","name":"姜家屯村委会","streetCode":"371082109","areaCode":"371082","cityCode":"3710","provinceCode":"37"},{"code":"371082109231","name":"双石周家村委会","streetCode":"371082109","areaCode":"371082","cityCode":"3710","provinceCode":"37"},{"code":"371082109232","name":"双石孙家村委会","streetCode":"371082109","areaCode":"371082","cityCode":"3710","provinceCode":"37"},{"code":"371082109233","name":"双石尹家村委会","streetCode":"371082109","areaCode":"371082","cityCode":"3710","provinceCode":"37"},{"code":"371082109234","name":"户山屯村委会","streetCode":"371082109","areaCode":"371082","cityCode":"3710","provinceCode":"37"},{"code":"371082109235","name":"诵庄村委会","streetCode":"371082109","areaCode":"371082","cityCode":"3710","provinceCode":"37"},{"code":"371082109236","name":"簿落村委会","streetCode":"371082109","areaCode":"371082","cityCode":"3710","provinceCode":"37"},{"code":"371082109237","name":"北岭长村委会","streetCode":"371082109","areaCode":"371082","cityCode":"3710","provinceCode":"37"},{"code":"371082109238","name":"南旺庄村委会","streetCode":"371082109","areaCode":"371082","cityCode":"3710","provinceCode":"37"},{"code":"371082109239","name":"北旺庄村委会","streetCode":"371082109","areaCode":"371082","cityCode":"3710","provinceCode":"37"},{"code":"371082109240","name":"贺家庄村委会","streetCode":"371082109","areaCode":"371082","cityCode":"3710","provinceCode":"37"},{"code":"371082109241","name":"四章向阳村委会","streetCode":"371082109","areaCode":"371082","cityCode":"3710","provinceCode":"37"},{"code":"371082109242","name":"湾头村委会","streetCode":"371082109","areaCode":"371082","cityCode":"3710","provinceCode":"37"},{"code":"371082109243","name":"东岭长村委会","streetCode":"371082109","areaCode":"371082","cityCode":"3710","provinceCode":"37"},{"code":"371082109244","name":"西岭长村委会","streetCode":"371082109","areaCode":"371082","cityCode":"3710","provinceCode":"37"},{"code":"371082110200","name":"东上庄村委会","streetCode":"371082110","areaCode":"371082","cityCode":"3710","provinceCode":"37"},{"code":"371082110201","name":"西上庄村委会","streetCode":"371082110","areaCode":"371082","cityCode":"3710","provinceCode":"37"},{"code":"371082110202","name":"河南王村村委会","streetCode":"371082110","areaCode":"371082","cityCode":"3710","provinceCode":"37"},{"code":"371082110203","name":"涝村徐家村委会","streetCode":"371082110","areaCode":"371082","cityCode":"3710","provinceCode":"37"},{"code":"371082110204","name":"涝村孙家村委会","streetCode":"371082110","areaCode":"371082","cityCode":"3710","provinceCode":"37"},{"code":"371082110205","name":"小客岭村委会","streetCode":"371082110","areaCode":"371082","cityCode":"3710","provinceCode":"37"},{"code":"371082110206","name":"东涝村委会","streetCode":"371082110","areaCode":"371082","cityCode":"3710","provinceCode":"37"},{"code":"371082110207","name":"西涝村村委会","streetCode":"371082110","areaCode":"371082","cityCode":"3710","provinceCode":"37"},{"code":"371082110208","name":"大李家村委会","streetCode":"371082110","areaCode":"371082","cityCode":"3710","provinceCode":"37"},{"code":"371082110209","name":"小李家村委会","streetCode":"371082110","areaCode":"371082","cityCode":"3710","provinceCode":"37"},{"code":"371082110210","name":"北也子口村委会","streetCode":"371082110","areaCode":"371082","cityCode":"3710","provinceCode":"37"},{"code":"371082110211","name":"北盛家村委会","streetCode":"371082110","areaCode":"371082","cityCode":"3710","provinceCode":"37"},{"code":"371082110212","name":"吕家疃村委会","streetCode":"371082110","areaCode":"371082","cityCode":"3710","provinceCode":"37"},{"code":"371082110213","name":"王皮庄村委会","streetCode":"371082110","areaCode":"371082","cityCode":"3710","provinceCode":"37"},{"code":"371082110214","name":"原家村委会","streetCode":"371082110","areaCode":"371082","cityCode":"3710","provinceCode":"37"},{"code":"371082110215","name":"口子后村委会","streetCode":"371082110","areaCode":"371082","cityCode":"3710","provinceCode":"37"},{"code":"371082110217","name":"汤家庵村委会","streetCode":"371082110","areaCode":"371082","cityCode":"3710","provinceCode":"37"},{"code":"371082110218","name":"院前村委会","streetCode":"371082110","areaCode":"371082","cityCode":"3710","provinceCode":"37"},{"code":"371082110219","name":"尹家村委会","streetCode":"371082110","areaCode":"371082","cityCode":"3710","provinceCode":"37"},{"code":"371082110220","name":"刘家店村委会","streetCode":"371082110","areaCode":"371082","cityCode":"3710","provinceCode":"37"},{"code":"371082110221","name":"槐树底下村委会","streetCode":"371082110","areaCode":"371082","cityCode":"3710","provinceCode":"37"},{"code":"371082110222","name":"房家村委会","streetCode":"371082110","areaCode":"371082","cityCode":"3710","provinceCode":"37"},{"code":"371082110224","name":"铺里村委会","streetCode":"371082110","areaCode":"371082","cityCode":"3710","provinceCode":"37"},{"code":"371082110225","name":"帽刘家村委会","streetCode":"371082110","areaCode":"371082","cityCode":"3710","provinceCode":"37"},{"code":"371082110226","name":"东古章村委会","streetCode":"371082110","areaCode":"371082","cityCode":"3710","provinceCode":"37"},{"code":"371082110227","name":"中古章村委会","streetCode":"371082110","areaCode":"371082","cityCode":"3710","provinceCode":"37"},{"code":"371082110228","name":"西古章村委会","streetCode":"371082110","areaCode":"371082","cityCode":"3710","provinceCode":"37"},{"code":"371082110229","name":"南沙岛村委会","streetCode":"371082110","areaCode":"371082","cityCode":"3710","provinceCode":"37"},{"code":"371082110230","name":"北沙岛村委会","streetCode":"371082110","areaCode":"371082","cityCode":"3710","provinceCode":"37"},{"code":"371082110231","name":"蔡官屯村委会","streetCode":"371082110","areaCode":"371082","cityCode":"3710","provinceCode":"37"},{"code":"371082110232","name":"庙东武家村委会","streetCode":"371082110","areaCode":"371082","cityCode":"3710","provinceCode":"37"},{"code":"371082110233","name":"西桥村委会","streetCode":"371082110","areaCode":"371082","cityCode":"3710","provinceCode":"37"},{"code":"371082110234","name":"邢格庄村委会","streetCode":"371082110","areaCode":"371082","cityCode":"3710","provinceCode":"37"},{"code":"371082110235","name":"东桥村委会","streetCode":"371082110","areaCode":"371082","cityCode":"3710","provinceCode":"37"},{"code":"371082110236","name":"梁家庄村委会","streetCode":"371082110","areaCode":"371082","cityCode":"3710","provinceCode":"37"},{"code":"371082110237","name":"王管庄村委会","streetCode":"371082110","areaCode":"371082","cityCode":"3710","provinceCode":"37"},{"code":"371082110239","name":"西旗杆石村委会","streetCode":"371082110","areaCode":"371082","cityCode":"3710","provinceCode":"37"},{"code":"371082110240","name":"东旗杆石村委会","streetCode":"371082110","areaCode":"371082","cityCode":"3710","provinceCode":"37"},{"code":"371082110241","name":"二里周家村委会","streetCode":"371082110","areaCode":"371082","cityCode":"3710","provinceCode":"37"},{"code":"371082110242","name":"刁家村委会","streetCode":"371082110","areaCode":"371082","cityCode":"3710","provinceCode":"37"},{"code":"371082110243","name":"塔山村委会","streetCode":"371082110","areaCode":"371082","cityCode":"3710","provinceCode":"37"},{"code":"371082110244","name":"小龙庄村委会","streetCode":"371082110","areaCode":"371082","cityCode":"3710","provinceCode":"37"},{"code":"371082111006","name":"红顶山社区居委会","streetCode":"371082111","areaCode":"371082","cityCode":"3710","provinceCode":"37"},{"code":"371082111200","name":"黄山村委会","streetCode":"371082111","areaCode":"371082","cityCode":"3710","provinceCode":"37"},{"code":"371082111201","name":"桥头庄村委会","streetCode":"371082111","areaCode":"371082","cityCode":"3710","provinceCode":"37"},{"code":"371082111202","name":"黄山王家村委会","streetCode":"371082111","areaCode":"371082","cityCode":"3710","provinceCode":"37"},{"code":"371082111203","name":"台上村委会","streetCode":"371082111","areaCode":"371082","cityCode":"3710","provinceCode":"37"},{"code":"371082111204","name":"福落山村委会","streetCode":"371082111","areaCode":"371082","cityCode":"3710","provinceCode":"37"},{"code":"371082111205","name":"史家泊村委会","streetCode":"371082111","areaCode":"371082","cityCode":"3710","provinceCode":"37"},{"code":"371082111206","name":"郇家村委会","streetCode":"371082111","areaCode":"371082","cityCode":"3710","provinceCode":"37"},{"code":"371082111207","name":"东双庙村委会","streetCode":"371082111","areaCode":"371082","cityCode":"3710","provinceCode":"37"},{"code":"371082111208","name":"北寨子后村委会","streetCode":"371082111","areaCode":"371082","cityCode":"3710","provinceCode":"37"},{"code":"371082111209","name":"南寨子后村委会","streetCode":"371082111","areaCode":"371082","cityCode":"3710","provinceCode":"37"},{"code":"371082111210","name":"小店村委会","streetCode":"371082111","areaCode":"371082","cityCode":"3710","provinceCode":"37"},{"code":"371082111211","name":"石讲子村委会","streetCode":"371082111","areaCode":"371082","cityCode":"3710","provinceCode":"37"},{"code":"371082111212","name":"鹊岛村委会","streetCode":"371082111","areaCode":"371082","cityCode":"3710","provinceCode":"37"},{"code":"371082111213","name":"五柳村委会","streetCode":"371082111","areaCode":"371082","cityCode":"3710","provinceCode":"37"},{"code":"371082111214","name":"岛宋家村委会","streetCode":"371082111","areaCode":"371082","cityCode":"3710","provinceCode":"37"},{"code":"371082111215","name":"峰山前村委会","streetCode":"371082111","areaCode":"371082","cityCode":"3710","provinceCode":"37"},{"code":"371082111216","name":"西双庙村委会","streetCode":"371082111","areaCode":"371082","cityCode":"3710","provinceCode":"37"},{"code":"371082111217","name":"南隋家村委会","streetCode":"371082111","areaCode":"371082","cityCode":"3710","provinceCode":"37"},{"code":"371082111218","name":"北隋家村委会","streetCode":"371082111","areaCode":"371082","cityCode":"3710","provinceCode":"37"},{"code":"371082111219","name":"胡家村委会","streetCode":"371082111","areaCode":"371082","cityCode":"3710","provinceCode":"37"},{"code":"371082111220","name":"安子山村委会","streetCode":"371082111","areaCode":"371082","cityCode":"3710","provinceCode":"37"},{"code":"371082111221","name":"罕山村委会","streetCode":"371082111","areaCode":"371082","cityCode":"3710","provinceCode":"37"},{"code":"371082111222","name":"庵里村委会","streetCode":"371082111","areaCode":"371082","cityCode":"3710","provinceCode":"37"},{"code":"371082111223","name":"东峰山后村委会","streetCode":"371082111","areaCode":"371082","cityCode":"3710","provinceCode":"37"},{"code":"371082111224","name":"西峰山后村委会","streetCode":"371082111","areaCode":"371082","cityCode":"3710","provinceCode":"37"},{"code":"371082111225","name":"燕山村委会","streetCode":"371082111","areaCode":"371082","cityCode":"3710","provinceCode":"37"},{"code":"371082111226","name":"黄山东庄村委会","streetCode":"371082111","areaCode":"371082","cityCode":"3710","provinceCode":"37"},{"code":"371082111227","name":"邱家村委会","streetCode":"371082111","areaCode":"371082","cityCode":"3710","provinceCode":"37"},{"code":"371082111228","name":"董家屯村委会","streetCode":"371082111","areaCode":"371082","cityCode":"3710","provinceCode":"37"},{"code":"371082111229","name":"正寺村委会","streetCode":"371082111","areaCode":"371082","cityCode":"3710","provinceCode":"37"},{"code":"371082111231","name":"大曲家村委会","streetCode":"371082111","areaCode":"371082","cityCode":"3710","provinceCode":"37"},{"code":"371082111232","name":"梁家村委会","streetCode":"371082111","areaCode":"371082","cityCode":"3710","provinceCode":"37"},{"code":"371082111233","name":"南于家村委会","streetCode":"371082111","areaCode":"371082","cityCode":"3710","provinceCode":"37"},{"code":"371082111234","name":"得胜寨村委会","streetCode":"371082111","areaCode":"371082","cityCode":"3710","provinceCode":"37"},{"code":"371082111235","name":"中村村委会","streetCode":"371082111","areaCode":"371082","cityCode":"3710","provinceCode":"37"},{"code":"371082111236","name":"郎家村委会","streetCode":"371082111","areaCode":"371082","cityCode":"3710","provinceCode":"37"},{"code":"371082111238","name":"石硼村委会","streetCode":"371082111","areaCode":"371082","cityCode":"3710","provinceCode":"37"},{"code":"371082111239","name":"五龙嘴村委会","streetCode":"371082111","areaCode":"371082","cityCode":"3710","provinceCode":"37"},{"code":"371082111240","name":"大龙嘴村委会","streetCode":"371082111","areaCode":"371082","cityCode":"3710","provinceCode":"37"},{"code":"371082111241","name":"孙家庄村委会","streetCode":"371082111","areaCode":"371082","cityCode":"3710","provinceCode":"37"},{"code":"371082111242","name":"东塘子村委会","streetCode":"371082111","areaCode":"371082","cityCode":"3710","provinceCode":"37"},{"code":"371082111243","name":"西塘子村委会","streetCode":"371082111","areaCode":"371082","cityCode":"3710","provinceCode":"37"},{"code":"371082111244","name":"岳家村委会","streetCode":"371082111","areaCode":"371082","cityCode":"3710","provinceCode":"37"},{"code":"371082111245","name":"光禄村委会","streetCode":"371082111","areaCode":"371082","cityCode":"3710","provinceCode":"37"},{"code":"371082111246","name":"长湾村委会","streetCode":"371082111","areaCode":"371082","cityCode":"3710","provinceCode":"37"},{"code":"371082112004","name":"康馨社区居委会","streetCode":"371082112","areaCode":"371082","cityCode":"3710","provinceCode":"37"},{"code":"371082112200","name":"靖海卫村委会","streetCode":"371082112","areaCode":"371082","cityCode":"3710","provinceCode":"37"},{"code":"371082112201","name":"西北河村委会","streetCode":"371082112","areaCode":"371082","cityCode":"3710","provinceCode":"37"},{"code":"371082112202","name":"中北河村委会","streetCode":"371082112","areaCode":"371082","cityCode":"3710","provinceCode":"37"},{"code":"371082112203","name":"东北河村委会","streetCode":"371082112","areaCode":"371082","cityCode":"3710","provinceCode":"37"},{"code":"371082112204","name":"沙北头村委会","streetCode":"371082112","areaCode":"371082","cityCode":"3710","provinceCode":"37"},{"code":"371082112205","name":"姜家沟村委会","streetCode":"371082112","areaCode":"371082","cityCode":"3710","provinceCode":"37"},{"code":"371082112206","name":"韩家疃村委会","streetCode":"371082112","areaCode":"371082","cityCode":"3710","provinceCode":"37"},{"code":"371082112207","name":"西刘家疃村委会","streetCode":"371082112","areaCode":"371082","cityCode":"3710","provinceCode":"37"},{"code":"371082112208","name":"东刘家疃村委会","streetCode":"371082112","areaCode":"371082","cityCode":"3710","provinceCode":"37"},{"code":"371082112209","name":"连家卧龙村委会","streetCode":"371082112","areaCode":"371082","cityCode":"3710","provinceCode":"37"},{"code":"371082112210","name":"许家屯村委会","streetCode":"371082112","areaCode":"371082","cityCode":"3710","provinceCode":"37"},{"code":"371082112211","name":"西北海村委会","streetCode":"371082112","areaCode":"371082","cityCode":"3710","provinceCode":"37"},{"code":"371082112212","name":"涨蒙村委会","streetCode":"371082112","areaCode":"371082","cityCode":"3710","provinceCode":"37"},{"code":"371082112213","name":"灶户村委会","streetCode":"371082112","areaCode":"371082","cityCode":"3710","provinceCode":"37"},{"code":"371082112214","name":"团栾村委会","streetCode":"371082112","areaCode":"371082","cityCode":"3710","provinceCode":"37"},{"code":"371082112215","name":"西邵家村委会","streetCode":"371082112","areaCode":"371082","cityCode":"3710","provinceCode":"37"},{"code":"371082112216","name":"孙家卧龙村委会","streetCode":"371082112","areaCode":"371082","cityCode":"3710","provinceCode":"37"},{"code":"371082112217","name":"东邵家村委会","streetCode":"371082112","areaCode":"371082","cityCode":"3710","provinceCode":"37"},{"code":"371082112218","name":"炮前村委会","streetCode":"371082112","areaCode":"371082","cityCode":"3710","provinceCode":"37"},{"code":"371082112219","name":"寨东村委会","streetCode":"371082112","areaCode":"371082","cityCode":"3710","provinceCode":"37"},{"code":"371082112220","name":"窑沟村委会","streetCode":"371082112","areaCode":"371082","cityCode":"3710","provinceCode":"37"},{"code":"371082112221","name":"寨前村委会","streetCode":"371082112","areaCode":"371082","cityCode":"3710","provinceCode":"37"},{"code":"371082112222","name":"瓦房疃村委会","streetCode":"371082112","areaCode":"371082","cityCode":"3710","provinceCode":"37"},{"code":"371082112223","name":"蒋家疃村委会","streetCode":"371082112","areaCode":"371082","cityCode":"3710","provinceCode":"37"},{"code":"371082112224","name":"冯家疃村村委会","streetCode":"371082112","areaCode":"371082","cityCode":"3710","provinceCode":"37"},{"code":"371082112225","name":"金沟村委会","streetCode":"371082112","areaCode":"371082","cityCode":"3710","provinceCode":"37"},{"code":"371082112226","name":"顶子前村委会","streetCode":"371082112","areaCode":"371082","cityCode":"3710","provinceCode":"37"},{"code":"371082112227","name":"石头桥村委会","streetCode":"371082112","areaCode":"371082","cityCode":"3710","provinceCode":"37"},{"code":"371082112228","name":"赵家庄村委会","streetCode":"371082112","areaCode":"371082","cityCode":"3710","provinceCode":"37"},{"code":"371082112229","name":"山西头村委会","streetCode":"371082112","areaCode":"371082","cityCode":"3710","provinceCode":"37"},{"code":"371082112230","name":"泊子村委会","streetCode":"371082112","areaCode":"371082","cityCode":"3710","provinceCode":"37"},{"code":"371082112231","name":"老军屯村委会","streetCode":"371082112","areaCode":"371082","cityCode":"3710","provinceCode":"37"},{"code":"371082112232","name":"万家疃村委会","streetCode":"371082112","areaCode":"371082","cityCode":"3710","provinceCode":"37"},{"code":"371082112233","name":"胡家庄村委会","streetCode":"371082112","areaCode":"371082","cityCode":"3710","provinceCode":"37"},{"code":"371082112234","name":"大庄村委会","streetCode":"371082112","areaCode":"371082","cityCode":"3710","provinceCode":"37"},{"code":"371082112235","name":"小庄村委会","streetCode":"371082112","areaCode":"371082","cityCode":"3710","provinceCode":"37"},{"code":"371082112236","name":"王家竹村村委会","streetCode":"371082112","areaCode":"371082","cityCode":"3710","provinceCode":"37"},{"code":"371082112237","name":"宋家竹村村委会","streetCode":"371082112","areaCode":"371082","cityCode":"3710","provinceCode":"37"},{"code":"371082112238","name":"秦家竹村村委会","streetCode":"371082112","areaCode":"371082","cityCode":"3710","provinceCode":"37"},{"code":"371082112239","name":"张家竹村村委会","streetCode":"371082112","areaCode":"371082","cityCode":"3710","provinceCode":"37"},{"code":"371082112240","name":"晏家庄村委会","streetCode":"371082112","areaCode":"371082","cityCode":"3710","provinceCode":"37"},{"code":"371082112241","name":"人和村委会","streetCode":"371082112","areaCode":"371082","cityCode":"3710","provinceCode":"37"},{"code":"371082112242","name":"宋家庄村委会","streetCode":"371082112","areaCode":"371082","cityCode":"3710","provinceCode":"37"},{"code":"371082112243","name":"东老树河村委会","streetCode":"371082112","areaCode":"371082","cityCode":"3710","provinceCode":"37"},{"code":"371082112244","name":"西老树河村委会","streetCode":"371082112","areaCode":"371082","cityCode":"3710","provinceCode":"37"},{"code":"371082112245","name":"东黄埠岭村委会","streetCode":"371082112","areaCode":"371082","cityCode":"3710","provinceCode":"37"},{"code":"371082112246","name":"蟠龙石村委会","streetCode":"371082112","areaCode":"371082","cityCode":"3710","provinceCode":"37"},{"code":"371082112247","name":"响湾沟村委会","streetCode":"371082112","areaCode":"371082","cityCode":"3710","provinceCode":"37"},{"code":"371082112248","name":"邢家村委会","streetCode":"371082112","areaCode":"371082","cityCode":"3710","provinceCode":"37"},{"code":"371082112249","name":"昌邑村委会","streetCode":"371082112","areaCode":"371082","cityCode":"3710","provinceCode":"37"},{"code":"371082112250","name":"何家村委会","streetCode":"371082112","areaCode":"371082","cityCode":"3710","provinceCode":"37"},{"code":"371082112251","name":"佛堂村委会","streetCode":"371082112","areaCode":"371082","cityCode":"3710","provinceCode":"37"},{"code":"371082112252","name":"古楼村委会","streetCode":"371082112","areaCode":"371082","cityCode":"3710","provinceCode":"37"},{"code":"371082112253","name":"钓沟村委会","streetCode":"371082112","areaCode":"371082","cityCode":"3710","provinceCode":"37"},{"code":"371082112254","name":"西里山村委会","streetCode":"371082112","areaCode":"371082","cityCode":"3710","provinceCode":"37"},{"code":"371082112255","name":"刘家嘴村委会","streetCode":"371082112","areaCode":"371082","cityCode":"3710","provinceCode":"37"},{"code":"371082112256","name":"丁家庄村委会","streetCode":"371082112","areaCode":"371082","cityCode":"3710","provinceCode":"37"},{"code":"371082112257","name":"西黄埠岭村委会","streetCode":"371082112","areaCode":"371082","cityCode":"3710","provinceCode":"37"},{"code":"371082112258","name":"东河口村委会","streetCode":"371082112","areaCode":"371082","cityCode":"3710","provinceCode":"37"},{"code":"371082112259","name":"西河口村委会","streetCode":"371082112","areaCode":"371082","cityCode":"3710","provinceCode":"37"},{"code":"371082112260","name":"南元产村委会","streetCode":"371082112","areaCode":"371082","cityCode":"3710","provinceCode":"37"},{"code":"371082112261","name":"北元产村委会","streetCode":"371082112","areaCode":"371082","cityCode":"3710","provinceCode":"37"},{"code":"371082112262","name":"千军石村委会","streetCode":"371082112","areaCode":"371082","cityCode":"3710","provinceCode":"37"},{"code":"371082112263","name":"南椤村委会","streetCode":"371082112","areaCode":"371082","cityCode":"3710","provinceCode":"37"},{"code":"371082112264","name":"大疃刘家村委会","streetCode":"371082112","areaCode":"371082","cityCode":"3710","provinceCode":"37"},{"code":"371082112265","name":"柳树赵家村委会","streetCode":"371082112","areaCode":"371082","cityCode":"3710","provinceCode":"37"},{"code":"371082112266","name":"南石硼村委会","streetCode":"371082112","areaCode":"371082","cityCode":"3710","provinceCode":"37"},{"code":"371082112267","name":"北石硼村委会","streetCode":"371082112","areaCode":"371082","cityCode":"3710","provinceCode":"37"},{"code":"371082112268","name":"杜家庄村委会","streetCode":"371082112","areaCode":"371082","cityCode":"3710","provinceCode":"37"},{"code":"371082112269","name":"路家庄村委会","streetCode":"371082112","areaCode":"371082","cityCode":"3710","provinceCode":"37"},{"code":"371082112270","name":"南下河村委会","streetCode":"371082112","areaCode":"371082","cityCode":"3710","provinceCode":"37"},{"code":"371082112271","name":"北下河村委会","streetCode":"371082112","areaCode":"371082","cityCode":"3710","provinceCode":"37"},{"code":"371082112272","name":"南齐山村委会","streetCode":"371082112","areaCode":"371082","cityCode":"3710","provinceCode":"37"},{"code":"371082112273","name":"北齐山村委会","streetCode":"371082112","areaCode":"371082","cityCode":"3710","provinceCode":"37"},{"code":"371082112274","name":"二道港村委会","streetCode":"371082112","areaCode":"371082","cityCode":"3710","provinceCode":"37"},{"code":"371082112275","name":"孙家夼村委会","streetCode":"371082112","areaCode":"371082","cityCode":"3710","provinceCode":"37"},{"code":"371082112276","name":"墩前村委会","streetCode":"371082112","areaCode":"371082","cityCode":"3710","provinceCode":"37"},{"code":"371082112277","name":"北卧龙村委会","streetCode":"371082112","areaCode":"371082","cityCode":"3710","provinceCode":"37"},{"code":"371082112278","name":"南卧龙村委会","streetCode":"371082112","areaCode":"371082","cityCode":"3710","provinceCode":"37"},{"code":"371082112279","name":"邢家嘴村委会","streetCode":"371082112","areaCode":"371082","cityCode":"3710","provinceCode":"37"},{"code":"371082112281","name":"朱口村委会","streetCode":"371082112","areaCode":"371082","cityCode":"3710","provinceCode":"37"},{"code":"371082112283","name":"院夼村委会","streetCode":"371082112","areaCode":"371082","cityCode":"3710","provinceCode":"37"},{"code":"371082112284","name":"柳口村委会","streetCode":"371082112","areaCode":"371082","cityCode":"3710","provinceCode":"37"},{"code":"371082112285","name":"码头村委会","streetCode":"371082112","areaCode":"371082","cityCode":"3710","provinceCode":"37"}]